{"type":"FeatureCollection","features":[{"type":"Feature","properties":{"dong":"봉담읍","gu":"효행구"},"geometry":{"type":"MultiPolygon","coordinates":[[[[126.970393,37.229197],[126.971047,37.228602],[126.971695,37.227363],[126.97191,37.225521],[126.972196,37.224714],[126.973949,37.222247],[126.975114,37.221938],[126.976605,37.222],[126.977929,37.220528],[126.979945,37.216818],[126.979793,37.215198],[126.981611,37.213298],[126.98011,37.212861],[126.979756,37.212522],[126.97924,37.209909],[126.979252,37.208796],[126.979986,37.206823],[126.980573,37.20654],[126.981516,37.205733],[126.985103,37.201941],[126.985566,37.200233],[126.98417,37.198598],[126.983732,37.197582],[126.983869,37.196493],[126.984218,37.195727],[126.983066,37.196144],[126.982258,37.196989],[126.98236,37.197074],[126.980737,37.19778],[126.9788,37.198077],[126.976169,37.197542],[126.976126,37.197095],[126.976289,37.196912],[126.975413,37.196573],[126.972681,37.196572],[126.970294,37.197175],[126.968456,37.198198],[126.967879,37.198305],[126.96186,37.196857],[126.956922,37.196415],[126.954144,37.195984],[126.9515,37.194809],[126.950205,37.193865],[126.952659,37.189282],[126.951109,37.187121],[126.950025,37.185199],[126.949565,37.183936],[126.949472,37.182764],[126.949771,37.181651],[126.950791,37.178764],[126.951608,37.177871],[126.951393,37.174908],[126.948604,37.174217],[126.944921,37.172166],[126.944241,37.171066],[126.945112,37.167884],[126.945673,37.164663],[126.94492,37.159394],[126.944605,37.158659],[126.943242,37.157255],[126.943031,37.154254],[126.943873,37.152802],[126.94603,37.150578],[126.946075,37.149832],[126.945206,37.145293],[126.944407,37.144407],[126.941827,37.143076],[126.940302,37.143477],[126.939745,37.144394],[126.937901,37.145188],[126.935683,37.145475],[126.934024,37.144563],[126.932974,37.14354],[126.931691,37.143397],[126.930595,37.143532],[126.929419,37.144547],[126.928824,37.146166],[126.929064,37.147922],[126.931485,37.149267],[126.933004,37.149494],[126.934054,37.150247],[126.934898,37.151982],[126.935825,37.155369],[126.936613,37.157118],[126.938046,37.157009],[126.935519,37.161172],[126.934819,37.161632],[126.932885,37.161103],[126.930349,37.16114],[126.927642,37.161602],[126.926105,37.161021],[126.924012,37.158139],[126.921816,37.155769],[126.920418,37.154507],[126.919899,37.154322],[126.919408,37.154367],[126.91699,37.155736],[126.914873,37.159975],[126.91507,37.163544],[126.915363,37.165257],[126.915536,37.165904],[126.916515,37.167307],[126.917382,37.167462],[126.917979,37.167231],[126.921347,37.168312],[126.919459,37.170527],[126.917214,37.175862],[126.917356,37.176536],[126.919439,37.178309],[126.921056,37.179202],[126.921515,37.181396],[126.921506,37.182953],[126.919795,37.187944],[126.920152,37.188571],[126.91997,37.189646],[126.916639,37.19128],[126.914846,37.191845],[126.904208,37.192444],[126.899904,37.194041],[126.90043,37.194351],[126.901981,37.196218],[126.902981,37.19744],[126.90353,37.198422],[126.904681,37.199003],[126.906107,37.199204],[126.906547,37.200116],[126.908343,37.20742],[126.907578,37.211501],[126.907119,37.212036],[126.906225,37.212508],[126.904685,37.213918],[126.903902,37.214974],[126.90337,37.216828],[126.905365,37.218342],[126.907131,37.220678],[126.909426,37.224223],[126.908295,37.230392],[126.907265,37.233374],[126.90834,37.234416],[126.912119,37.23554],[126.912394,37.236621],[126.912369,37.238603],[126.912173,37.239067],[126.91259,37.239995],[126.914111,37.241167],[126.914776,37.241502],[126.915899,37.241563],[126.921899,37.239872],[126.924689,37.238886],[126.925362,37.238321],[126.925091,37.236486],[126.925247,37.234524],[126.926207,37.234372],[126.926739,37.234518],[126.928127,37.2353],[126.929625,37.237897],[126.929538,37.240153],[126.93014,37.241846],[126.930671,37.242696],[126.932096,37.243246],[126.933915,37.243627],[126.937808,37.242951],[126.939874,37.241967],[126.940793,37.240804],[126.942361,37.239294],[126.944215,37.238991],[126.945822,37.239083],[126.946864,37.239453],[126.947269,37.239893],[126.948008,37.241409],[126.948142,37.24276],[126.949602,37.243088],[126.953842,37.242857],[126.955749,37.244584],[126.956678,37.245188],[126.957312,37.244176],[126.957959,37.242598],[126.957992,37.241267],[126.957605,37.240545],[126.957351,37.2404],[126.957765,37.239765],[126.960952,37.238108],[126.962003,37.237679],[126.962985,37.237525],[126.966954,37.235625],[126.9677,37.234836],[126.968995,37.23164],[126.969246,37.230674],[126.970393,37.229197]]]]}},{"type":"Feature","properties":{"dong":"우정읍","gu":"만세구"},"geometry":{"type":"MultiPolygon","coordinates":[[[[126.559294,37.06179],[126.553669,37.058349],[126.552885,37.059293],[126.55585,37.062998],[126.557412,37.064485],[126.557337,37.063771],[126.557765,37.062959],[126.558538,37.062159],[126.559294,37.06179]]],[[[126.731698,37.072226],[126.730873,37.072073],[126.730319,37.072179],[126.730302,37.073172],[126.731912,37.077723],[126.732776,37.079193],[126.734712,37.081265],[126.735811,37.083],[126.735759,37.086156],[126.735274,37.088105],[126.73526,37.092645],[126.735332,37.093052],[126.735833,37.093139],[126.736399,37.092857],[126.737431,37.091787],[126.739289,37.088096],[126.739445,37.086514],[126.740516,37.084879],[126.741949,37.083229],[126.742301,37.082299],[126.742653,37.079904],[126.742669,37.077625],[126.74251,37.076762],[126.742014,37.076153],[126.741123,37.075636],[126.737778,37.07484],[126.733829,37.073511],[126.732706,37.073011],[126.731698,37.072226]]],[[[126.539851,37.099451],[126.539098,37.099051],[126.537865,37.10356],[126.537195,37.106986],[126.537037,37.108938],[126.53795,37.110757],[126.537498,37.11243],[126.538401,37.112409],[126.540169,37.11181],[126.540564,37.11119],[126.541035,37.109759],[126.541667,37.102762],[126.539851,37.099451]]],[[[126.806854,37.012724],[126.796915,37.01206],[126.79666,37.01602],[126.796223,37.016915],[126.795031,37.018036],[126.794563,37.025792],[126.78906,37.029172],[126.765679,37.029331],[126.751006,37.029251],[126.749757,37.029563],[126.748818,37.030098],[126.744752,37.036319],[126.744355,37.039194],[126.744798,37.041624],[126.748367,37.049035],[126.756589,37.056386],[126.768954,37.060141],[126.770182,37.063846],[126.766587,37.063696],[126.762886,37.062798],[126.761338,37.068079],[126.764128,37.068973],[126.764311,37.070378],[126.764057,37.071893],[126.763986,37.072173],[126.763497,37.072319],[126.762771,37.075222],[126.763668,37.081204],[126.764946,37.084699],[126.764239,37.086506],[126.764736,37.087779],[126.765596,37.089331],[126.766596,37.08917],[126.767109,37.090936],[126.766284,37.093194],[126.768235,37.095701],[126.769841,37.099499],[126.77033,37.10148],[126.770237,37.102833],[126.769823,37.103861],[126.769044,37.102994],[126.766347,37.103719],[126.765269,37.104953],[126.765342,37.105918],[126.75864,37.110666],[126.758273,37.111057],[126.758065,37.111596],[126.758171,37.112555],[126.759405,37.116293],[126.75981,37.117117],[126.763823,37.122406],[126.76874,37.127896],[126.77217,37.127896],[126.774,37.128305],[126.775515,37.129902],[126.7761,37.132299],[126.782704,37.135117],[126.783415,37.134849],[126.786822,37.132688],[126.787486,37.129803],[126.794927,37.129015],[126.795446,37.130674],[126.795571,37.133786],[126.795762,37.13442],[126.801127,37.138655],[126.810377,37.14016],[126.81195,37.139414],[126.816784,37.135743],[126.824259,37.129627],[126.823924,37.127007],[126.824478,37.126229],[126.825822,37.125431],[126.827675,37.124958],[126.828598,37.123718],[126.831036,37.117536],[126.82775,37.11723],[126.822616,37.117107],[126.814175,37.116316],[126.813854,37.116098],[126.814332,37.110393],[126.814836,37.108435],[126.81523,37.108412],[126.818993,37.107055],[126.822276,37.105441],[126.824921,37.102651],[126.829781,37.102123],[126.832634,37.100497],[126.833614,37.098819],[126.832116,37.098059],[126.828404,37.096673],[126.827506,37.095877],[126.82852,37.09226],[126.829031,37.091247],[126.827391,37.087883],[126.82639,37.086879],[126.823921,37.086498],[126.822536,37.085115],[126.82335,37.083661],[126.814749,37.079931],[126.814165,37.080867],[126.812247,37.081306],[126.810242,37.081175],[126.806888,37.079665],[126.806689,37.077751],[126.807303,37.074467],[126.808407,37.073403],[126.809899,37.073362],[126.810296,37.073161],[126.812068,37.070797],[126.808405,37.068516],[126.805337,37.066917],[126.800124,37.066081],[126.795819,37.058755],[126.795824,37.056321],[126.797773,37.055082],[126.801516,37.052126],[126.801512,37.051775],[126.800972,37.050708],[126.802774,37.049153],[126.80749,37.047843],[126.810165,37.047566],[126.810637,37.046774],[126.812481,37.041293],[126.812756,37.037792],[126.812752,37.025587],[126.806619,37.025583],[126.80644,37.016548],[126.806854,37.012724]]]]}},{"type":"Feature","properties":{"dong":"향남읍","gu":"만세구"},"geometry":{"type":"MultiPolygon","coordinates":[[[[126.999138,37.123635],[126.998098,37.123088],[126.9976,37.123354],[126.997133,37.123397],[126.994878,37.122766],[126.993292,37.121575],[126.992283,37.119487],[126.990765,37.119061],[126.987916,37.120584],[126.98678,37.120945],[126.985004,37.120777],[126.983258,37.120165],[126.980285,37.119814],[126.9791,37.121692],[126.977089,37.123051],[126.976444,37.122729],[126.975798,37.119742],[126.972133,37.113689],[126.971652,37.111001],[126.971722,37.109704],[126.971447,37.109087],[126.968166,37.107321],[126.966567,37.108046],[126.958103,37.108694],[126.955495,37.108358],[126.955044,37.107996],[126.954462,37.107046],[126.954882,37.10458],[126.954748,37.102453],[126.954079,37.100834],[126.953915,37.099585],[126.954069,37.097773],[126.954604,37.097312],[126.954244,37.094081],[126.953198,37.092753],[126.949887,37.092147],[126.948066,37.09229],[126.944821,37.093351],[126.945302,37.095053],[126.94586,37.099958],[126.945515,37.100889],[126.943617,37.100795],[126.938225,37.103442],[126.936344,37.10561],[126.932991,37.105593],[126.93256,37.105274],[126.932268,37.104667],[126.932298,37.103754],[126.931754,37.102401],[126.931213,37.101739],[126.928722,37.100107],[126.925671,37.099006],[126.925745,37.096817],[126.92721,37.087495],[126.92685,37.081852],[126.920695,37.079951],[126.918628,37.079725],[126.916599,37.080204],[126.911051,37.078579],[126.910927,37.077675],[126.909212,37.076041],[126.902069,37.072037],[126.901314,37.070433],[126.900825,37.070095],[126.891377,37.067027],[126.889021,37.066815],[126.888744,37.066992],[126.884153,37.066627],[126.883763,37.066484],[126.883519,37.069472],[126.882873,37.072479],[126.881826,37.07603],[126.878527,37.085552],[126.87822,37.086931],[126.878168,37.088305],[126.878277,37.089265],[126.879831,37.093495],[126.882482,37.095564],[126.886845,37.100054],[126.888455,37.103594],[126.888318,37.104923],[126.887713,37.105288],[126.887053,37.105076],[126.885117,37.107073],[126.887011,37.110303],[126.889543,37.11544],[126.88985,37.116207],[126.890315,37.118911],[126.889677,37.122288],[126.886869,37.124327],[126.892409,37.135327],[126.893113,37.134599],[126.894835,37.134957],[126.895612,37.136353],[126.895999,37.138628],[126.897412,37.140606],[126.898776,37.14105],[126.903516,37.147996],[126.906386,37.149558],[126.911625,37.147527],[126.911668,37.146144],[126.910979,37.143684],[126.910494,37.140661],[126.914096,37.140228],[126.916118,37.140629],[126.917471,37.14162],[126.920567,37.142712],[126.922476,37.142547],[126.928094,37.145529],[126.928824,37.146166],[126.929419,37.144547],[126.930595,37.143532],[126.931691,37.143397],[126.932974,37.14354],[126.934024,37.144563],[126.935683,37.145475],[126.937901,37.145188],[126.939745,37.144394],[126.940302,37.143477],[126.941827,37.143076],[126.944407,37.144407],[126.945206,37.145293],[126.946075,37.149832],[126.94603,37.150578],[126.948229,37.150041],[126.951752,37.148545],[126.952384,37.148138],[126.952546,37.14553],[126.955418,37.143514],[126.958555,37.142547],[126.966694,37.143605],[126.967609,37.144335],[126.969171,37.144712],[126.974222,37.143316],[126.97882,37.143293],[126.982224,37.14145],[126.982454,37.139036],[126.982089,37.136036],[126.982139,37.135195],[126.983122,37.13385],[126.98403,37.133567],[126.98623,37.131229],[126.987209,37.129722],[126.990579,37.128719],[126.991283,37.128789],[126.993119,37.129808],[126.996175,37.129181],[126.997029,37.128372],[126.997322,37.127887],[126.997109,37.126765],[126.996794,37.126105],[126.996774,37.124733],[126.997485,37.124103],[126.999138,37.123635]]]]}},{"type":"Feature","properties":{"dong":"남양읍","gu":"만세구"},"geometry":{"type":"MultiPolygon","coordinates":[[[[126.84097,37.265921],[126.838377,37.263833],[126.834059,37.257701],[126.834425,37.254431],[126.834204,37.254124],[126.832678,37.254082],[126.830765,37.25364],[126.827548,37.251876],[126.827282,37.251482],[126.826372,37.248656],[126.826609,37.245831],[126.827155,37.242966],[126.825392,37.239128],[126.824938,37.238519],[126.824484,37.238236],[126.823701,37.236849],[126.82527,37.235181],[126.826808,37.235419],[126.827974,37.232188],[126.828375,37.229836],[126.828986,37.22962],[126.832811,37.230465],[126.835518,37.231343],[126.835827,37.232152],[126.839133,37.232134],[126.839969,37.23091],[126.84049,37.229638],[126.840931,37.229285],[126.843366,37.228701],[126.845232,37.229157],[126.846272,37.228715],[126.848509,37.22735],[126.849976,37.226153],[126.850958,37.223101],[126.854824,37.216989],[126.856906,37.214223],[126.865368,37.211735],[126.866963,37.209436],[126.866027,37.204839],[126.865797,37.204301],[126.862293,37.199881],[126.861735,37.198749],[126.859779,37.193122],[126.859881,37.19225],[126.860689,37.191011],[126.859427,37.188338],[126.858379,37.18807],[126.857866,37.187728],[126.857345,37.186709],[126.856792,37.185077],[126.856787,37.184719],[126.859879,37.178801],[126.86301,37.176743],[126.864528,37.17556],[126.86474,37.174084],[126.862505,37.17065],[126.862703,37.168812],[126.85914,37.165369],[126.853372,37.162734],[126.847651,37.160392],[126.84606,37.159512],[126.844892,37.158224],[126.843349,37.155988],[126.843026,37.155228],[126.838407,37.152585],[126.835104,37.151228],[126.83382,37.150508],[126.831534,37.150015],[126.828576,37.149703],[126.824593,37.149571],[126.822852,37.149775],[126.821101,37.150375],[126.805496,37.14891],[126.804512,37.151468],[126.80045,37.153433],[126.799535,37.15359],[126.796279,37.151899],[126.794771,37.150878],[126.790315,37.149548],[126.787494,37.150579],[126.78276,37.151207],[126.781964,37.151587],[126.781247,37.152031],[126.781801,37.152763],[126.785533,37.154902],[126.788316,37.155225],[126.79499,37.158245],[126.797603,37.162449],[126.795763,37.166199],[126.795755,37.169221],[126.796189,37.17043],[126.794794,37.171542],[126.793719,37.171954],[126.792005,37.173146],[126.792118,37.175341],[126.792592,37.176582],[126.795567,37.179714],[126.797282,37.186326],[126.797105,37.188881],[126.797466,37.190214],[126.797957,37.190408],[126.798253,37.19255],[126.795529,37.193289],[126.791942,37.195802],[126.790661,37.199316],[126.791397,37.201631],[126.796271,37.210466],[126.798352,37.212338],[126.800212,37.213257],[126.801357,37.213373],[126.801857,37.214061],[126.799265,37.219095],[126.799057,37.220549],[126.799329,37.221899],[126.798968,37.222929],[126.796955,37.22556],[126.795233,37.22653],[126.793255,37.229173],[126.793164,37.229585],[126.792465,37.230751],[126.790771,37.232463],[126.790507,37.232569],[126.786411,37.232985],[126.786307,37.233386],[126.78515,37.234511],[126.784337,37.234714],[126.783098,37.234371],[126.781599,37.235563],[126.778297,37.239245],[126.777779,37.240791],[126.778063,37.245949],[126.782255,37.245171],[126.787652,37.24444],[126.789362,37.244375],[126.789524,37.247825],[126.788092,37.255175],[126.792742,37.258802],[126.79304,37.259452],[126.792825,37.260032],[126.792096,37.260475],[126.791538,37.261362],[126.790113,37.266639],[126.79011,37.267322],[126.792287,37.268965],[126.796138,37.270918],[126.798577,37.270616],[126.802172,37.269631],[126.809278,37.266809],[126.809791,37.266843],[126.810474,37.267186],[126.810558,37.267698],[126.810343,37.268347],[126.809914,37.268653],[126.809018,37.268276],[126.808376,37.268412],[126.805023,37.274915],[126.803607,37.276552],[126.800568,37.277811],[126.799196,37.279004],[126.799362,37.279405],[126.801076,37.27969],[126.802607,37.282937],[126.804488,37.28366],[126.804871,37.284482],[126.80687,37.284845],[126.808082,37.285866],[126.809545,37.286109],[126.810613,37.286779],[126.81272,37.286089],[126.813853,37.285041],[126.813661,37.284611],[126.811957,37.284016],[126.811965,37.283157],[126.810987,37.283268],[126.810755,37.28194],[126.810125,37.281468],[126.809815,37.280579],[126.811783,37.279048],[126.813765,37.278611],[126.814847,37.277769],[126.816005,37.277912],[126.817011,37.277469],[126.817075,37.277137],[126.819022,37.276456],[126.819196,37.276135],[126.820028,37.275906],[126.821138,37.274702],[126.821467,37.274782],[126.823245,37.273895],[126.824603,37.272283],[126.825563,37.27143],[126.827083,37.270677],[126.82789,37.270526],[126.828939,37.270668],[126.831177,37.273671],[126.83548,37.270964],[126.837411,37.270692],[126.840924,37.266906],[126.841246,37.266322],[126.84097,37.265921]]]]}},{"type":"Feature","properties":{"dong":"매송면","gu":"효행구"},"geometry":{"type":"MultiPolygon","coordinates":[[[[126.927375,37.278797],[126.928021,37.277075],[126.928682,37.276719],[126.927527,37.273453],[126.927265,37.271431],[126.929008,37.263656],[126.930846,37.261042],[126.932004,37.260561],[126.934784,37.257881],[126.93495,37.257049],[126.935132,37.256917],[126.939504,37.256589],[126.943588,37.256842],[126.94653,37.257504],[126.948531,37.256831],[126.950046,37.255844],[126.950203,37.255315],[126.949983,37.253819],[126.950708,37.252372],[126.952244,37.251473],[126.952721,37.249094],[126.953366,37.248129],[126.956188,37.24677],[126.956678,37.245188],[126.955749,37.244584],[126.953842,37.242857],[126.949602,37.243088],[126.948142,37.24276],[126.948008,37.241409],[126.947269,37.239893],[126.946864,37.239453],[126.946049,37.239113],[126.944215,37.238991],[126.942361,37.239294],[126.940793,37.240804],[126.939874,37.241967],[126.937808,37.242951],[126.933915,37.243627],[126.932096,37.243246],[126.930671,37.242696],[126.93014,37.241846],[126.929538,37.240153],[126.929625,37.237897],[126.928127,37.2353],[126.926739,37.234518],[126.926207,37.234372],[126.925247,37.234524],[126.925091,37.236486],[126.925312,37.238408],[126.923985,37.239197],[126.921899,37.239872],[126.915899,37.241563],[126.914776,37.241502],[126.914111,37.241167],[126.91259,37.239995],[126.912173,37.239067],[126.912369,37.238603],[126.911317,37.238742],[126.904855,37.241239],[126.904978,37.24216],[126.903901,37.242961],[126.901497,37.243478],[126.900207,37.242839],[126.8993,37.242763],[126.898133,37.244021],[126.896604,37.246247],[126.895722,37.248018],[126.894831,37.249277],[126.889604,37.251089],[126.889065,37.253415],[126.887291,37.256383],[126.886488,37.256734],[126.88543,37.256551],[126.883725,37.256647],[126.877676,37.258064],[126.876211,37.258823],[126.874047,37.260511],[126.873557,37.260502],[126.869842,37.259437],[126.867597,37.25968],[126.867191,37.260123],[126.866515,37.261483],[126.866356,37.264358],[126.864616,37.266873],[126.864192,37.267055],[126.863432,37.266996],[126.863081,37.266823],[126.862887,37.266402],[126.860395,37.267999],[126.858567,37.269887],[126.85704,37.269378],[126.852725,37.272037],[126.857942,37.273883],[126.858224,37.274178],[126.871322,37.274709],[126.876668,37.277721],[126.878154,37.279234],[126.87827,37.282466],[126.878529,37.283946],[126.87901,37.285039],[126.879694,37.285667],[126.883301,37.282181],[126.884046,37.28162],[126.886181,37.280529],[126.88781,37.280787],[126.890913,37.28202],[126.891389,37.282479],[126.891469,37.282881],[126.891086,37.283845],[126.892873,37.286452],[126.895264,37.288303],[126.896411,37.288995],[126.897699,37.28906],[126.898785,37.289576],[126.899548,37.290204],[126.898412,37.293998],[126.901499,37.290977],[126.905546,37.289887],[126.911985,37.290149],[126.91309,37.291533],[126.913855,37.291469],[126.916132,37.288673],[126.917564,37.285394],[126.923706,37.281363],[126.926223,37.27913],[126.927375,37.278797]]]]}},{"type":"Feature","properties":{"dong":"비봉면","gu":"효행구"},"geometry":{"type":"MultiPolygon","coordinates":[[[[126.912369,37.238603],[126.912394,37.236621],[126.912119,37.23554],[126.90834,37.234416],[126.907265,37.233374],[126.908295,37.230392],[126.909426,37.224223],[126.907131,37.220678],[126.905365,37.218342],[126.90337,37.216828],[126.903902,37.214974],[126.904685,37.213918],[126.906225,37.212508],[126.907119,37.212036],[126.907578,37.211501],[126.908343,37.20742],[126.906547,37.200116],[126.906107,37.199204],[126.904681,37.199003],[126.90353,37.198422],[126.902981,37.19744],[126.900121,37.19414],[126.899904,37.194041],[126.89843,37.195054],[126.89417,37.193029],[126.890535,37.195494],[126.88892,37.197026],[126.885282,37.197325],[126.882301,37.197241],[126.881555,37.196835],[126.881097,37.19621],[126.878534,37.194252],[126.875903,37.193839],[126.871756,37.197009],[126.871862,37.197342],[126.871279,37.197835],[126.8687,37.198787],[126.863327,37.201329],[126.865797,37.204301],[126.866027,37.204839],[126.866963,37.209436],[126.865368,37.211735],[126.856906,37.214223],[126.854824,37.216989],[126.850958,37.223101],[126.849976,37.226153],[126.848509,37.22735],[126.846272,37.228715],[126.845232,37.229157],[126.843366,37.228701],[126.840931,37.229285],[126.84049,37.229638],[126.839969,37.23091],[126.839133,37.232134],[126.835827,37.232152],[126.835518,37.231343],[126.832811,37.230465],[126.828986,37.22962],[126.828375,37.229836],[126.827974,37.232188],[126.826808,37.235419],[126.82527,37.235181],[126.823701,37.236849],[126.824484,37.238236],[126.824938,37.238519],[126.825392,37.239128],[126.827155,37.242966],[126.826609,37.245831],[126.826372,37.248656],[126.827103,37.25112],[126.827502,37.251823],[126.830765,37.25364],[126.832678,37.254082],[126.834204,37.254124],[126.834425,37.254431],[126.834059,37.257701],[126.838377,37.263833],[126.84097,37.265921],[126.841246,37.266322],[126.844268,37.264232],[126.844245,37.263978],[126.845031,37.263494],[126.844231,37.262866],[126.844852,37.261601],[126.844565,37.260877],[126.84494,37.259845],[126.845771,37.259752],[126.845818,37.260006],[126.845401,37.260199],[126.8452,37.260861],[126.846256,37.262974],[126.846564,37.264069],[126.846075,37.264183],[126.845458,37.264921],[126.84523,37.265896],[126.847173,37.265748],[126.847897,37.265958],[126.849343,37.268676],[126.852725,37.272037],[126.85704,37.269378],[126.858567,37.269887],[126.860395,37.267999],[126.862887,37.266402],[126.863081,37.266823],[126.863432,37.266996],[126.864192,37.267055],[126.864616,37.266873],[126.866356,37.264358],[126.866515,37.261483],[126.867467,37.259747],[126.869842,37.259437],[126.873557,37.260502],[126.874047,37.260511],[126.876211,37.258823],[126.877676,37.258064],[126.883725,37.256647],[126.88543,37.256551],[126.886488,37.256734],[126.886988,37.256566],[126.887467,37.256245],[126.889065,37.253415],[126.889604,37.251089],[126.894831,37.249277],[126.895722,37.248018],[126.896604,37.246247],[126.898133,37.244021],[126.899143,37.242845],[126.900207,37.242839],[126.901497,37.243478],[126.903901,37.242961],[126.904978,37.24216],[126.904855,37.241239],[126.911317,37.238742],[126.912369,37.238603]]]]}},{"type":"Feature","properties":{"dong":"마도면","gu":"만세구"},"geometry":{"type":"MultiPolygon","coordinates":[[[[126.786411,37.232985],[126.790771,37.232463],[126.792465,37.230751],[126.793164,37.229585],[126.793255,37.229173],[126.795233,37.22653],[126.796524,37.225903],[126.798033,37.224302],[126.798968,37.222929],[126.799329,37.221899],[126.799057,37.220549],[126.799265,37.219095],[126.801857,37.214061],[126.801357,37.213373],[126.800212,37.213257],[126.798352,37.212338],[126.796271,37.210466],[126.791397,37.201631],[126.790661,37.199316],[126.791942,37.195802],[126.795529,37.193289],[126.798253,37.19255],[126.797957,37.190408],[126.797466,37.190214],[126.795308,37.18136],[126.790355,37.175322],[126.786772,37.171832],[126.7808,37.166684],[126.777976,37.164677],[126.775691,37.164324],[126.766439,37.164218],[126.759908,37.164728],[126.758927,37.164901],[126.753044,37.166716],[126.749233,37.166882],[126.748255,37.166533],[126.746517,37.165484],[126.74641,37.164787],[126.746804,37.16171],[126.746079,37.163394],[126.742638,37.166734],[126.735408,37.169603],[126.732926,37.169255],[126.726513,37.174127],[126.726197,37.174856],[126.726304,37.175464],[126.72596,37.176168],[126.724704,37.176313],[126.718632,37.176386],[126.718498,37.176533],[126.71515,37.181778],[126.716374,37.184932],[126.718758,37.186639],[126.720417,37.188417],[126.719863,37.189246],[126.719305,37.1913],[126.719232,37.193983],[126.718933,37.194422],[126.72835,37.198461],[126.728324,37.199268],[126.727908,37.199877],[126.727927,37.200495],[126.728696,37.201976],[126.728987,37.202237],[126.733507,37.203156],[126.738763,37.205177],[126.743589,37.206103],[126.745383,37.205262],[126.746583,37.205065],[126.749482,37.206687],[126.750246,37.208701],[126.750384,37.211288],[126.753859,37.211465],[126.754257,37.210749],[126.754437,37.209544],[126.755045,37.207521],[126.756067,37.206319],[126.757285,37.205855],[126.757598,37.205843],[126.75809,37.206099],[126.760619,37.207908],[126.760864,37.208434],[126.76064,37.209117],[126.760597,37.209958],[126.761549,37.210681],[126.768438,37.210897],[126.772693,37.210308],[126.773715,37.210913],[126.774267,37.212514],[126.772633,37.215019],[126.772831,37.219441],[126.781425,37.226993],[126.782507,37.228397],[126.781737,37.234391],[126.785851,37.233316],[126.786411,37.232985]]]]}},{"type":"Feature","properties":{"dong":"송산면","gu":"만세구"},"geometry":{"type":"MultiPolygon","coordinates":[[[[126.658368,37.201811],[126.65778,37.201952],[126.657692,37.202279],[126.658127,37.202961],[126.658659,37.2031],[126.658944,37.202858],[126.658923,37.202255],[126.658368,37.201811]]],[[[126.663129,37.203444],[126.662084,37.203697],[126.660277,37.204894],[126.662143,37.205714],[126.663181,37.205432],[126.663517,37.204876],[126.66334,37.203668],[126.663129,37.203444]]],[[[126.766388,37.259446],[126.762789,37.26009],[126.761997,37.260842],[126.762163,37.261096],[126.762687,37.261334],[126.765643,37.261967],[126.766456,37.259681],[126.766388,37.259446]]],[[[126.781737,37.234391],[126.782507,37.228397],[126.781425,37.226993],[126.772831,37.219441],[126.772633,37.215019],[126.774267,37.212514],[126.773715,37.210913],[126.772693,37.210308],[126.768438,37.210897],[126.761549,37.210681],[126.760597,37.209958],[126.76064,37.209117],[126.760864,37.208434],[126.760619,37.207908],[126.75809,37.206099],[126.757598,37.205843],[126.757285,37.205855],[126.756067,37.206319],[126.755045,37.207521],[126.754437,37.209544],[126.754257,37.210749],[126.753859,37.211465],[126.750384,37.211288],[126.750246,37.208701],[126.749482,37.206687],[126.746583,37.205065],[126.745383,37.205262],[126.743589,37.206103],[126.738763,37.205177],[126.733507,37.203156],[126.728987,37.202237],[126.728696,37.201976],[126.727927,37.200495],[126.727908,37.199877],[126.728324,37.199268],[126.72835,37.198461],[126.718933,37.194422],[126.71728,37.194546],[126.716009,37.19627],[126.716114,37.196596],[126.715006,37.197579],[126.713653,37.19816],[126.712996,37.197489],[126.712231,37.196308],[126.710051,37.19462],[126.708354,37.193677],[126.706234,37.192777],[126.700801,37.196781],[126.701142,37.199249],[126.701573,37.200575],[126.69983,37.202597],[126.698084,37.202376],[126.697442,37.202665],[126.697035,37.203159],[126.697801,37.203656],[126.697842,37.203854],[126.697473,37.204069],[126.696983,37.20402],[126.694055,37.202995],[126.691927,37.203141],[126.692027,37.204912],[126.692689,37.20635],[126.696523,37.211039],[126.699159,37.213738],[126.698978,37.214046],[126.691747,37.214298],[126.690214,37.213025],[126.688436,37.207548],[126.684901,37.208287],[126.684178,37.209452],[126.679214,37.207178],[126.67898,37.20658],[126.679127,37.20539],[126.678944,37.203955],[126.676804,37.200789],[126.674058,37.199692],[126.673246,37.199796],[126.672222,37.200437],[126.666233,37.208644],[126.665398,37.211682],[126.666105,37.216745],[126.666866,37.217935],[126.667694,37.218095],[126.668134,37.217997],[126.670974,37.219043],[126.675567,37.221108],[126.676776,37.222561],[126.677385,37.223595],[126.676232,37.225082],[126.673543,37.22778],[126.672959,37.229583],[126.67154,37.230301],[126.670151,37.230065],[126.668727,37.229412],[126.668573,37.229163],[126.664768,37.233644],[126.664529,37.236786],[126.661313,37.238231],[126.656703,37.237801],[126.657633,37.235948],[126.655573,37.234755],[126.651442,37.238795],[126.650068,37.242367],[126.64808,37.249011],[126.64977,37.251589],[126.649936,37.254173],[126.650572,37.254175],[126.652374,37.250754],[126.655616,37.248642],[126.65615,37.248007],[126.654981,37.246814],[126.667144,37.244397],[126.667769,37.243196],[126.668213,37.242808],[126.668966,37.242669],[126.669939,37.242848],[126.672589,37.244094],[126.676607,37.246475],[126.680285,37.256018],[126.678592,37.256913],[126.676528,37.256832],[126.675399,37.257428],[126.675769,37.258704],[126.676906,37.260732],[126.678249,37.26135],[126.679796,37.260589],[126.679428,37.259013],[126.679808,37.257966],[126.681125,37.257219],[126.68487,37.259403],[126.686733,37.262706],[126.689173,37.262863],[126.690863,37.262568],[126.69312,37.261524],[126.698564,37.261539],[126.704114,37.258629],[126.708994,37.258641],[126.714257,37.25678],[126.717263,37.256112],[126.719139,37.256117],[126.721671,37.256797],[126.723682,37.257522],[126.724054,37.258423],[126.725461,37.258576],[126.72659,37.25783],[126.72669,37.255956],[126.727823,37.254234],[126.729417,37.254463],[126.734031,37.250349],[126.735531,37.250728],[126.738335,37.253958],[126.740712,37.255151],[126.745086,37.255771],[126.748934,37.25578],[126.757008,37.255048],[126.758982,37.254002],[126.763866,37.252812],[126.76754,37.248322],[126.770269,37.248977],[126.772475,37.249015],[126.774147,37.248523],[126.775179,37.247931],[126.775634,37.247471],[126.775889,37.246931],[126.77626,37.244096],[126.777172,37.239263],[126.777612,37.237905],[126.780663,37.235465],[126.781737,37.234391]]],[[[126.6788,37.27408],[126.668758,37.273452],[126.667348,37.274048],[126.666685,37.27532],[126.672856,37.280886],[126.678666,37.283675],[126.680167,37.283904],[126.684969,37.280618],[126.680581,37.274835],[126.680019,37.274384],[126.6788,37.27408]]],[[[126.740618,37.289005],[126.742465,37.287659],[126.745384,37.287985],[126.745608,37.287487],[126.745887,37.284078],[126.745888,37.283616],[126.745533,37.28326],[126.744911,37.283009],[126.741396,37.283001],[126.737522,37.283526],[126.735078,37.282596],[126.73432,37.282844],[126.73423,37.283092],[126.734754,37.285936],[126.73666,37.288321],[126.739416,37.28918],[126.740618,37.289005]]]]}},{"type":"Feature","properties":{"dong":"서신면","gu":"만세구"},"geometry":{"type":"MultiPolygon","coordinates":[[[[126.614938,37.119672],[126.615578,37.119594],[126.615168,37.118333],[126.614088,37.117286],[126.613846,37.11721],[126.613024,37.117465],[126.612802,37.117804],[126.612757,37.118255],[126.613178,37.118816],[126.613769,37.119373],[126.614938,37.119672]]],[[[126.638808,37.139488],[126.638662,37.139346],[126.638166,37.13935],[126.637533,37.139982],[126.637308,37.143438],[126.637753,37.143536],[126.638258,37.143398],[126.639188,37.142273],[126.638656,37.141499],[126.63863,37.140383],[126.638808,37.139488]]],[[[126.624644,37.176873],[126.624396,37.176839],[126.626657,37.175376],[126.630615,37.173809],[126.628294,37.1687],[126.627268,37.167281],[126.626022,37.165961],[126.622404,37.163146],[126.619581,37.159582],[126.618213,37.157597],[126.614939,37.155478],[126.614471,37.155416],[126.614257,37.155979],[126.614647,37.156691],[126.615836,37.158239],[126.616884,37.159174],[126.617472,37.161793],[126.616811,37.16535],[126.61624,37.17207],[126.616219,37.173288],[126.616754,37.175114],[126.618985,37.177659],[126.62019,37.178488],[126.621823,37.178977],[126.62454,37.177137],[126.624644,37.176873]]],[[[126.718933,37.194422],[126.719232,37.193983],[126.719305,37.1913],[126.719863,37.189246],[126.720417,37.188417],[126.718758,37.186639],[126.716374,37.184932],[126.71515,37.181778],[126.718498,37.176533],[126.718632,37.176386],[126.724704,37.176313],[126.72596,37.176168],[126.726304,37.175464],[126.726197,37.174856],[126.726513,37.174127],[126.732926,37.169255],[126.735408,37.169603],[126.742638,37.166734],[126.746079,37.163394],[126.746804,37.16171],[126.746461,37.160001],[126.745886,37.159074],[126.745018,37.158456],[126.744275,37.157639],[126.742794,37.155564],[126.742466,37.154859],[126.742579,37.153801],[126.741812,37.15283],[126.740218,37.151548],[126.737525,37.149735],[126.736314,37.149424],[126.735817,37.149864],[126.733668,37.149859],[126.731137,37.149105],[126.732083,37.146419],[126.72982,37.141539],[126.728067,37.138759],[126.726638,37.138007],[126.725042,37.137474],[126.723501,37.137295],[126.721906,37.136586],[126.721083,37.135747],[126.719224,37.131996],[126.7173,37.130757],[126.713781,37.129427],[126.713009,37.129513],[126.711296,37.131096],[126.709422,37.131488],[126.707825,37.13144],[126.706394,37.13104],[126.705845,37.130554],[126.705298,37.129715],[126.705026,37.128789],[126.704839,37.123137],[126.698243,37.119789],[126.695402,37.119925],[126.692376,37.119167],[126.688479,37.116116],[126.687712,37.115102],[126.688377,37.113957],[126.687281,37.112632],[126.686128,37.111924],[126.684643,37.111612],[126.683267,37.111519],[126.68255,37.111783],[126.68106,37.112571],[126.677911,37.115031],[126.677963,37.115648],[126.680888,37.115598],[126.683682,37.117426],[126.684283,37.118706],[126.6845,37.119588],[126.683882,37.122406],[126.681929,37.128438],[126.67744,37.134974],[126.676222,37.135626],[126.676007,37.135279],[126.674578,37.134658],[126.673696,37.134699],[126.673509,37.137992],[126.675112,37.138405],[126.676157,37.138848],[126.679013,37.140734],[126.679506,37.141484],[126.68218,37.147352],[126.682559,37.148852],[126.683712,37.149736],[126.685475,37.149916],[126.689888,37.150835],[126.6945,37.152364],[126.694496,37.153157],[126.69295,37.153991],[126.691886,37.155342],[126.690734,37.157184],[126.684167,37.159678],[126.689314,37.167492],[126.689257,37.167844],[126.688871,37.167931],[126.683601,37.163246],[126.682611,37.160366],[126.670123,37.155705],[126.663927,37.156568],[126.663102,37.156302],[126.662278,37.15577],[126.660576,37.154399],[126.659036,37.153823],[126.654852,37.152973],[126.650662,37.153622],[126.649834,37.154016],[126.649336,37.154543],[126.649437,37.15657],[126.650371,37.157102],[126.654774,37.158217],[126.657854,37.15924],[126.660651,37.162111],[126.66059,37.163478],[126.658766,37.16482],[126.657652,37.167373],[126.655861,37.173493],[126.655814,37.17555],[126.655552,37.17766],[126.653755,37.179212],[126.653122,37.18024],[126.653276,37.180918],[126.653651,37.181371],[126.654625,37.181375],[126.656009,37.180926],[126.657206,37.180277],[126.658502,37.178422],[126.66086,37.178027],[126.661391,37.178757],[126.661419,37.179561],[126.661856,37.180115],[126.662918,37.181399],[126.664673,37.182384],[126.665046,37.183314],[126.665695,37.185742],[126.665662,37.186193],[126.665409,37.186495],[126.664716,37.186845],[126.664556,37.187422],[126.666152,37.189034],[126.666842,37.189211],[126.66722,37.188986],[126.667442,37.18851],[126.667851,37.188511],[126.669733,37.189144],[126.664727,37.191466],[126.659893,37.190473],[126.658356,37.18989],[126.65451,37.185861],[126.654112,37.183674],[126.654207,37.183247],[126.654869,37.182923],[126.654775,37.182797],[126.650504,37.182533],[126.649623,37.182907],[126.649273,37.18376],[126.650176,37.18527],[126.652525,37.18706],[126.655152,37.189655],[126.655338,37.190384],[126.651057,37.191087],[126.651622,37.191646],[126.656023,37.190914],[126.657275,37.190958],[126.660327,37.1963],[126.660701,37.196533],[126.662048,37.196774],[126.664778,37.19658],[126.665741,37.196323],[126.66579,37.195761],[126.671209,37.194389],[126.669181,37.196461],[126.669579,37.196771],[126.670752,37.197126],[126.675666,37.197509],[126.676497,37.19739],[126.677964,37.197613],[126.679847,37.198275],[126.680285,37.198738],[126.680353,37.199607],[126.683431,37.201039],[126.686582,37.202207],[126.691287,37.203184],[126.694055,37.202995],[126.696983,37.20402],[126.697473,37.204069],[126.697842,37.203854],[126.697801,37.203656],[126.697035,37.203159],[126.697442,37.202665],[126.698084,37.202376],[126.69983,37.202597],[126.701573,37.200575],[126.701142,37.199249],[126.700801,37.196781],[126.706096,37.192806],[126.708354,37.193677],[126.710051,37.19462],[126.712231,37.196308],[126.712996,37.197489],[126.713653,37.19816],[126.715006,37.197579],[126.716114,37.196596],[126.716009,37.19627],[126.71728,37.194546],[126.718933,37.194422]]]]}},{"type":"Feature","properties":{"dong":"팔탄면","gu":"만세구"},"geometry":{"type":"MultiPolygon","coordinates":[[[[126.899904,37.194041],[126.904208,37.192444],[126.914846,37.191845],[126.916639,37.19128],[126.91997,37.189646],[126.920152,37.188571],[126.919795,37.187944],[126.921506,37.182953],[126.921515,37.181396],[126.921056,37.179202],[126.919439,37.178309],[126.917356,37.176536],[126.917214,37.175862],[126.919459,37.170527],[126.921347,37.168312],[126.917979,37.167231],[126.91767,37.167431],[126.916881,37.167461],[126.916515,37.167307],[126.915536,37.165904],[126.91507,37.163544],[126.914873,37.159975],[126.91699,37.155736],[126.919408,37.154367],[126.919899,37.154322],[126.920418,37.154507],[126.921816,37.155769],[126.924012,37.158139],[126.926105,37.161021],[126.927642,37.161602],[126.930349,37.16114],[126.932885,37.161103],[126.934819,37.161632],[126.935519,37.161172],[126.938046,37.157009],[126.936613,37.157118],[126.935825,37.155369],[126.934898,37.151982],[126.934054,37.150247],[126.933004,37.149494],[126.931485,37.149267],[126.929064,37.147922],[126.928824,37.146166],[126.928094,37.145529],[126.922476,37.142547],[126.920567,37.142712],[126.917471,37.14162],[126.916118,37.140629],[126.914096,37.140228],[126.910494,37.140661],[126.910979,37.143684],[126.911668,37.146144],[126.911625,37.147527],[126.906386,37.149558],[126.903516,37.147996],[126.898776,37.14105],[126.897412,37.140606],[126.895999,37.138628],[126.895612,37.136353],[126.894835,37.134957],[126.893113,37.134599],[126.892409,37.135327],[126.886869,37.124327],[126.889677,37.122288],[126.890315,37.118911],[126.88985,37.116207],[126.889543,37.11544],[126.887011,37.110303],[126.885117,37.107073],[126.887053,37.105076],[126.887713,37.105288],[126.888318,37.104923],[126.888455,37.103594],[126.886845,37.100054],[126.882482,37.095564],[126.879831,37.093495],[126.877987,37.095523],[126.87676,37.097235],[126.875562,37.101905],[126.874177,37.102354],[126.871271,37.10257],[126.866494,37.103804],[126.865811,37.104203],[126.862783,37.111168],[126.86188,37.111863],[126.859205,37.112116],[126.856073,37.115828],[126.849981,37.121028],[126.849099,37.121465],[126.848373,37.122501],[126.848186,37.123767],[126.848486,37.124412],[126.849089,37.125134],[126.849048,37.12676],[126.848696,37.127915],[126.844632,37.13057],[126.843198,37.130843],[126.842251,37.131616],[126.84129,37.132915],[126.841138,37.134916],[126.841454,37.137234],[126.841788,37.137799],[126.841958,37.137869],[126.842267,37.137697],[126.84599,37.139082],[126.847029,37.13967],[126.849946,37.141859],[126.850117,37.143522],[126.849975,37.144339],[126.849437,37.145138],[126.846103,37.148348],[126.838407,37.152585],[126.843026,37.155228],[126.843349,37.155988],[126.844892,37.158224],[126.84606,37.159512],[126.847651,37.160392],[126.853372,37.162734],[126.85914,37.165369],[126.862703,37.168812],[126.862505,37.17065],[126.86474,37.174084],[126.864528,37.17556],[126.86301,37.176743],[126.859879,37.178801],[126.856783,37.184874],[126.857345,37.186709],[126.857866,37.187728],[126.858379,37.18807],[126.859427,37.188338],[126.860689,37.191011],[126.859881,37.19225],[126.859779,37.193122],[126.861735,37.198749],[126.862293,37.199881],[126.863327,37.201329],[126.8687,37.198787],[126.871279,37.197835],[126.871862,37.197342],[126.871756,37.197009],[126.875903,37.193839],[126.878534,37.194252],[126.881097,37.19621],[126.881555,37.196835],[126.882301,37.197241],[126.884976,37.197324],[126.88892,37.197026],[126.890535,37.195494],[126.89417,37.193029],[126.89843,37.195054],[126.899904,37.194041]]]]}},{"type":"Feature","properties":{"dong":"장안면","gu":"만세구"},"geometry":{"type":"MultiPolygon","coordinates":[[[[126.879831,37.093495],[126.878277,37.089265],[126.87822,37.086931],[126.878527,37.085552],[126.881826,37.07603],[126.882873,37.072479],[126.883519,37.069472],[126.883744,37.066284],[126.883271,37.063436],[126.882534,37.060805],[126.881208,37.058291],[126.875834,37.050688],[126.872425,37.046618],[126.858045,37.026099],[126.853108,37.020002],[126.850096,37.017817],[126.846925,37.015849],[126.843232,37.014571],[126.838064,37.013655],[126.821013,37.013376],[126.806854,37.012724],[126.80644,37.016548],[126.806619,37.025583],[126.812752,37.025587],[126.812756,37.037792],[126.812481,37.041293],[126.810637,37.046774],[126.810165,37.047566],[126.80749,37.047843],[126.802774,37.049153],[126.800972,37.050708],[126.801512,37.051775],[126.801516,37.052126],[126.797773,37.055082],[126.795824,37.056321],[126.795819,37.058755],[126.800124,37.066081],[126.805337,37.066917],[126.808405,37.068516],[126.812068,37.070797],[126.810296,37.073161],[126.809899,37.073362],[126.808407,37.073403],[126.807303,37.074467],[126.806689,37.077751],[126.806888,37.079665],[126.810242,37.081175],[126.812247,37.081306],[126.814165,37.080867],[126.814749,37.079931],[126.82335,37.083661],[126.822536,37.085115],[126.823921,37.086498],[126.82639,37.086879],[126.827391,37.087883],[126.829031,37.091247],[126.82852,37.09226],[126.827506,37.095877],[126.828404,37.096673],[126.832116,37.098059],[126.833614,37.098819],[126.832634,37.100497],[126.829781,37.102123],[126.824921,37.102651],[126.822276,37.105441],[126.818993,37.107055],[126.81523,37.108412],[126.814836,37.108435],[126.814332,37.110393],[126.813854,37.116098],[126.814175,37.116316],[126.822616,37.117107],[126.82775,37.11723],[126.831036,37.117536],[126.828598,37.123718],[126.827675,37.124958],[126.825822,37.125431],[126.824478,37.126229],[126.823924,37.127007],[126.824259,37.129627],[126.816784,37.135743],[126.81195,37.139414],[126.815086,37.142291],[126.81539,37.142749],[126.815123,37.143054],[126.807647,37.144354],[126.805496,37.14891],[126.821101,37.150375],[126.822852,37.149775],[126.824593,37.149571],[126.828576,37.149703],[126.831534,37.150015],[126.83382,37.150508],[126.835104,37.151228],[126.838407,37.152585],[126.846103,37.148348],[126.849437,37.145138],[126.849929,37.144419],[126.850117,37.143522],[126.849946,37.141859],[126.847029,37.13967],[126.84599,37.139082],[126.842267,37.137697],[126.841958,37.137869],[126.841788,37.137799],[126.841454,37.137234],[126.841113,37.134546],[126.841162,37.133341],[126.84149,37.13252],[126.842251,37.131616],[126.843198,37.130843],[126.844632,37.13057],[126.848696,37.127915],[126.849048,37.12676],[126.849089,37.125134],[126.848486,37.124412],[126.848178,37.123557],[126.848308,37.122631],[126.849099,37.121465],[126.849981,37.121028],[126.856073,37.115828],[126.859205,37.112116],[126.86188,37.111863],[126.862783,37.111168],[126.865811,37.104203],[126.866494,37.103804],[126.871271,37.10257],[126.874177,37.102354],[126.875562,37.101905],[126.87676,37.097235],[126.877987,37.095523],[126.879831,37.093495]]]]}},{"type":"Feature","properties":{"dong":"양감면","gu":"만세구"},"geometry":{"type":"MultiPolygon","coordinates":[[[[126.995128,37.070048],[126.987598,37.070452],[126.986043,37.071309],[126.984627,37.07165],[126.975544,37.070602],[126.974282,37.071012],[126.973895,37.07157],[126.973136,37.072029],[126.968827,37.073427],[126.968058,37.072967],[126.967478,37.072069],[126.967048,37.070449],[126.966404,37.069107],[126.965344,37.068803],[126.964777,37.068857],[126.962835,37.069626],[126.961245,37.069819],[126.958923,37.068772],[126.956448,37.068268],[126.952636,37.06823],[126.951368,37.068561],[126.945493,37.065561],[126.944091,37.063298],[126.940384,37.060813],[126.931655,37.062694],[126.931834,37.063259],[126.930239,37.067105],[126.928647,37.068037],[126.927932,37.068087],[126.927154,37.067879],[126.923184,37.066403],[126.92285,37.066224],[126.922439,37.06555],[126.922045,37.0653],[126.919416,37.065189],[126.914878,37.065773],[126.912844,37.066807],[126.912711,37.067386],[126.910394,37.068827],[126.906304,37.069289],[126.905766,37.069658],[126.905317,37.070175],[126.904899,37.071522],[126.905974,37.072201],[126.905748,37.073299],[126.904914,37.073638],[126.909212,37.076041],[126.910927,37.077675],[126.911051,37.078579],[126.916599,37.080204],[126.918628,37.079725],[126.920695,37.079951],[126.92685,37.081852],[126.92721,37.087495],[126.925745,37.096817],[126.925671,37.099006],[126.928722,37.100107],[126.931213,37.101739],[126.931754,37.102401],[126.932298,37.103754],[126.932268,37.104667],[126.93256,37.105274],[126.932991,37.105593],[126.936344,37.10561],[126.938225,37.103442],[126.943617,37.100795],[126.945515,37.100889],[126.94586,37.099958],[126.945302,37.095053],[126.944821,37.093351],[126.948066,37.09229],[126.949887,37.092147],[126.953198,37.092753],[126.954244,37.094081],[126.954604,37.097312],[126.954069,37.097773],[126.953915,37.099585],[126.954079,37.100834],[126.954748,37.102453],[126.954882,37.10458],[126.954462,37.107046],[126.955044,37.107996],[126.955495,37.108358],[126.958103,37.108694],[126.966567,37.108046],[126.968166,37.107321],[126.971447,37.109087],[126.971722,37.109704],[126.971652,37.111001],[126.972133,37.113689],[126.975798,37.119742],[126.976444,37.122729],[126.976605,37.122835],[126.977089,37.123051],[126.9791,37.121692],[126.980285,37.119814],[126.983258,37.120165],[126.985004,37.120777],[126.98678,37.120945],[126.987916,37.120584],[126.990765,37.119061],[126.992283,37.119487],[126.993292,37.121575],[126.994878,37.122766],[126.997331,37.123403],[126.997817,37.123274],[126.999166,37.122438],[126.999514,37.12241],[127.00234,37.123877],[127.002096,37.121902],[127.00079,37.11862],[126.997441,37.112643],[126.996655,37.111983],[126.995728,37.108204],[126.996291,37.107034],[126.996879,37.106619],[126.997853,37.104453],[126.998308,37.100569],[126.997025,37.097818],[126.997036,37.097129],[126.997296,37.096327],[126.998882,37.093166],[126.998927,37.092587],[126.997772,37.091264],[126.993593,37.089582],[126.992708,37.088591],[126.992069,37.086522],[126.991726,37.084771],[126.991925,37.083205],[126.993099,37.079493],[126.99448,37.073562],[126.995128,37.070048]]]]}},{"type":"Feature","properties":{"dong":"정남면","gu":"효행구"},"geometry":{"type":"MultiPolygon","coordinates":[[[[126.984218,37.195727],[126.984765,37.195228],[126.985386,37.194932],[126.987549,37.194591],[126.990882,37.194517],[126.995223,37.19397],[126.997443,37.192507],[126.997424,37.191719],[126.997667,37.190494],[127.007019,37.187733],[127.007845,37.186997],[127.003601,37.183341],[127.002426,37.182048],[127.00365,37.181613],[127.004613,37.181477],[127.00481,37.18125],[127.004819,37.180798],[127.004558,37.180414],[127.003009,37.179138],[126.99977,37.177576],[126.996497,37.178461],[126.995153,37.177273],[126.995254,37.175014],[126.995529,37.174856],[126.996291,37.174907],[127.000069,37.173554],[127.001666,37.172469],[127.004155,37.169769],[127.00653,37.168064],[127.012391,37.167569],[127.016627,37.167845],[127.019049,37.167292],[127.019885,37.167086],[127.021269,37.16643],[127.021435,37.166174],[127.022716,37.165466],[127.024023,37.165261],[127.028095,37.163122],[127.027308,37.161726],[127.026974,37.160661],[127.029757,37.158759],[127.030487,37.156007],[127.030103,37.155403],[127.028795,37.154984],[127.028097,37.154327],[127.027834,37.153795],[127.02786,37.152674],[127.028073,37.152171],[127.02863,37.151324],[127.029981,37.150004],[127.030131,37.149524],[127.030341,37.146375],[127.02987,37.145717],[127.029824,37.145316],[127.030921,37.144416],[127.031519,37.143263],[127.031592,37.142588],[127.032573,37.140197],[127.033344,37.138756],[127.034464,37.137226],[127.035633,37.13602],[127.034464,37.135865],[127.030396,37.134572],[127.03023,37.133978],[127.028872,37.133374],[127.025157,37.132787],[127.024545,37.133226],[127.024219,37.133221],[127.020653,37.131729],[127.017505,37.129923],[127.01346,37.128976],[127.01146,37.128958],[127.005375,37.128096],[127.003832,37.126953],[127.003221,37.125471],[127.00243,37.124382],[126.999519,37.123512],[126.997485,37.124103],[126.996774,37.124733],[126.996794,37.126105],[126.997109,37.126765],[126.997322,37.127887],[126.997029,37.128372],[126.996175,37.129181],[126.993119,37.129808],[126.991283,37.128789],[126.990579,37.128719],[126.987209,37.129722],[126.98623,37.131229],[126.98403,37.133567],[126.983122,37.13385],[126.982139,37.135195],[126.982089,37.136036],[126.982454,37.139036],[126.982224,37.14145],[126.979066,37.14318],[126.97882,37.143293],[126.974222,37.143316],[126.969171,37.144712],[126.967609,37.144335],[126.966694,37.143605],[126.958555,37.142547],[126.955418,37.143514],[126.952546,37.14553],[126.952384,37.148138],[126.951752,37.148545],[126.948229,37.150041],[126.94603,37.150578],[126.943873,37.152802],[126.943031,37.154254],[126.943242,37.157255],[126.944605,37.158659],[126.94492,37.159394],[126.945673,37.164663],[126.945112,37.167884],[126.944241,37.171066],[126.944921,37.172166],[126.948604,37.174217],[126.951393,37.174908],[126.951608,37.177871],[126.950791,37.178764],[126.949771,37.181651],[126.949472,37.182764],[126.949565,37.183936],[126.950025,37.185199],[126.951109,37.187121],[126.952659,37.189282],[126.950205,37.193865],[126.9515,37.194809],[126.954144,37.195984],[126.956922,37.196415],[126.96186,37.196857],[126.967879,37.198305],[126.968456,37.198198],[126.970294,37.197175],[126.972681,37.196572],[126.975413,37.196573],[126.976289,37.196912],[126.976126,37.197095],[126.976169,37.197542],[126.9788,37.198077],[126.980737,37.19778],[126.98236,37.197074],[126.982258,37.196989],[126.983066,37.196144],[126.984218,37.195727]]]]}},{"type":"Feature","properties":{"dong":"동탄6동","gu":"동탄구"},"geometry":{"type":"MultiPolygon","coordinates":[[[[127.095691,37.17492],[127.088954,37.160525],[127.084003,37.161084],[127.083821,37.160848],[127.083609,37.161454],[127.083241,37.161698],[127.080537,37.16162],[127.079878,37.161353],[127.078905,37.162515],[127.076252,37.162173],[127.075393,37.1626],[127.075806,37.163052],[127.075901,37.163679],[127.07487,37.164224],[127.074793,37.164753],[127.073468,37.165492],[127.073585,37.166433],[127.073215,37.16698],[127.071274,37.168206],[127.071366,37.169421],[127.070723,37.170457],[127.070613,37.172709],[127.070728,37.173923],[127.072294,37.173968],[127.073025,37.174558],[127.072218,37.175976],[127.07214,37.182019],[127.071555,37.183711],[127.071059,37.184038],[127.073073,37.187094],[127.074518,37.187311],[127.078587,37.18604],[127.079037,37.185354],[127.079181,37.184822],[127.080127,37.18452],[127.083615,37.184198],[127.083925,37.185879],[127.084171,37.189481],[127.083505,37.191367],[127.08313,37.191788],[127.082883,37.192567],[127.082767,37.194234],[127.083846,37.197263],[127.083916,37.199205],[127.083473,37.200476],[127.083643,37.201095],[127.084628,37.202573],[127.085493,37.203092],[127.086017,37.203628],[127.086268,37.204726],[127.098921,37.20475],[127.098752,37.190903],[127.100071,37.189555],[127.10166,37.189447],[127.103236,37.189609],[127.104009,37.190164],[127.104247,37.189375],[127.103304,37.188456],[127.102745,37.186614],[127.104816,37.18534],[127.10843,37.184344],[127.113173,37.183959],[127.11363,37.183555],[127.11691,37.183506],[127.114269,37.181534],[127.111514,37.180019],[127.110115,37.17945],[127.108203,37.178835],[127.103467,37.177812],[127.100429,37.177473],[127.098147,37.17744],[127.09769,37.176539],[127.096562,37.175821],[127.095691,37.17492]]]]}},{"type":"Feature","properties":{"dong":"진안동","gu":"병점구"},"geometry":{"type":"MultiPolygon","coordinates":[[[[127.050407,37.196327],[127.049625,37.195898],[127.046999,37.196112],[127.046099,37.196264],[127.042507,37.197638],[127.043605,37.197799],[127.044052,37.198104],[127.044254,37.199921],[127.043778,37.200888],[127.042707,37.200917],[127.043251,37.201642],[127.044123,37.202193],[127.045826,37.202834],[127.047187,37.203945],[127.047895,37.204973],[127.048671,37.20712],[127.049475,37.205966],[127.052827,37.202934],[127.053096,37.202007],[127.052971,37.201478],[127.051658,37.200393],[127.049941,37.197947],[127.049585,37.196841],[127.050407,37.196327]]],[[[127.044989,37.233173],[127.044218,37.228689],[127.047452,37.226138],[127.051559,37.221008],[127.052464,37.221515],[127.053339,37.221312],[127.05492,37.220158],[127.056536,37.218637],[127.055873,37.218228],[127.052836,37.21486],[127.053336,37.214277],[127.054828,37.213099],[127.05627,37.212202],[127.056223,37.210666],[127.054381,37.20845],[127.053875,37.208133],[127.052616,37.208341],[127.051425,37.208742],[127.051065,37.210485],[127.053531,37.213567],[127.05295,37.214228],[127.051925,37.214229],[127.051238,37.214531],[127.046231,37.218161],[127.045486,37.218311],[127.045276,37.215733],[127.042368,37.213411],[127.041044,37.211362],[127.038894,37.210842],[127.033919,37.206928],[127.032091,37.206381],[127.031664,37.207014],[127.023815,37.204176],[127.0241,37.205036],[127.023912,37.20579],[127.023024,37.206737],[127.021793,37.207359],[127.021435,37.207733],[127.021138,37.208408],[127.028909,37.21123],[127.025958,37.215379],[127.025438,37.218089],[127.026228,37.220028],[127.023412,37.225394],[127.022628,37.224897],[127.023956,37.227184],[127.023969,37.227415],[127.022899,37.229515],[127.029644,37.23201],[127.033471,37.235301],[127.0367,37.238401],[127.037137,37.2405],[127.039683,37.243503],[127.040002,37.243265],[127.040286,37.243307],[127.040848,37.24377],[127.041035,37.245037],[127.040842,37.245852],[127.040424,37.246326],[127.040427,37.247004],[127.04109,37.247374],[127.042623,37.246751],[127.03913,37.237192],[127.041643,37.235198],[127.044499,37.234259],[127.044979,37.233793],[127.044989,37.233173]]]]}},{"type":"Feature","properties":{"dong":"병점1동","gu":"병점구"},"geometry":{"type":"MultiPolygon","coordinates":[[[[127.038922,37.210812],[127.044586,37.203267],[127.044418,37.202211],[127.044123,37.202193],[127.043251,37.201642],[127.042707,37.200917],[127.043778,37.200888],[127.044254,37.199921],[127.044109,37.198277],[127.043605,37.197799],[127.041543,37.197491],[127.038723,37.198328],[127.037394,37.199141],[127.03728,37.199708],[127.036888,37.199942],[127.033316,37.200105],[127.031244,37.19991],[127.028244,37.200133],[127.024518,37.20089],[127.023023,37.201512],[127.023815,37.204176],[127.031664,37.207014],[127.032091,37.206381],[127.033919,37.206928],[127.038922,37.210812]]]]}},{"type":"Feature","properties":{"dong":"병점2동","gu":"병점구"},"geometry":{"type":"MultiPolygon","coordinates":[[[[127.051341,37.210871],[127.050508,37.211808],[127.049541,37.210732],[127.048838,37.209396],[127.04859,37.206615],[127.047895,37.204973],[127.047187,37.203945],[127.045826,37.202834],[127.044418,37.202211],[127.044586,37.203267],[127.038922,37.210812],[127.041044,37.211362],[127.042368,37.213411],[127.045276,37.215733],[127.045486,37.218311],[127.046231,37.218161],[127.051238,37.214531],[127.051925,37.214229],[127.05295,37.214228],[127.053219,37.213993],[127.053531,37.213567],[127.051341,37.210871]]]]}},{"type":"Feature","properties":{"dong":"반월동","gu":"병점구"},"geometry":{"type":"MultiPolygon","coordinates":[[[[127.06668,37.240148],[127.068052,37.238757],[127.068426,37.237647],[127.068504,37.237145],[127.068219,37.237099],[127.068015,37.23669],[127.067996,37.234681],[127.068766,37.230112],[127.069633,37.229286],[127.07071,37.228913],[127.072603,37.229162],[127.07456,37.228134],[127.074825,37.226742],[127.075583,37.2259],[127.07322,37.226317],[127.072606,37.226121],[127.07058,37.224946],[127.068248,37.223132],[127.06753,37.222141],[127.068222,37.220332],[127.069086,37.219724],[127.070715,37.213702],[127.064375,37.212076],[127.06322,37.216594],[127.062339,37.21909],[127.061611,37.220652],[127.060325,37.221476],[127.058684,37.22051],[127.056536,37.218637],[127.05492,37.220158],[127.053339,37.221312],[127.052464,37.221515],[127.051559,37.221008],[127.047452,37.226138],[127.044218,37.228689],[127.044989,37.233173],[127.045948,37.232787],[127.046634,37.232882],[127.048131,37.233394],[127.049501,37.234089],[127.05154,37.234355],[127.053621,37.233444],[127.053834,37.232317],[127.05257,37.231485],[127.052558,37.23106],[127.05632,37.232867],[127.058275,37.234132],[127.059422,37.235161],[127.059899,37.23579],[127.060046,37.236258],[127.063259,37.239167],[127.064401,37.239273],[127.064999,37.240037],[127.06668,37.240148]]]]}},{"type":"Feature","properties":{"dong":"기배동","gu":"효행구"},"geometry":{"type":"MultiPolygon","coordinates":[[[[126.992646,37.230852],[127.003684,37.229291],[127.008096,37.227845],[127.006992,37.226986],[127.003129,37.222797],[127.003232,37.220754],[127.003426,37.22005],[126.999513,37.219655],[126.997331,37.218887],[126.993855,37.216869],[126.987717,37.214938],[126.981611,37.213298],[126.979793,37.215198],[126.979945,37.216818],[126.977929,37.220528],[126.976605,37.222],[126.975114,37.221938],[126.973949,37.222247],[126.972196,37.224714],[126.97191,37.225521],[126.971695,37.227363],[126.971047,37.228602],[126.970393,37.229197],[126.972823,37.228721],[126.978225,37.229573],[126.979908,37.231041],[126.980204,37.232126],[126.98036,37.232245],[126.9824,37.232264],[126.985723,37.232637],[126.988115,37.233595],[126.990386,37.232632],[126.992646,37.230852]]]]}},{"type":"Feature","properties":{"dong":"화산동","gu":"병점구"},"geometry":{"type":"MultiPolygon","coordinates":[[[[127.021371,37.224236],[127.023412,37.225394],[127.026228,37.220028],[127.025438,37.218089],[127.025958,37.215379],[127.028909,37.21123],[127.021138,37.208408],[127.021435,37.207733],[127.021793,37.207359],[127.023024,37.206737],[127.023663,37.206165],[127.024036,37.205529],[127.0241,37.205036],[127.023023,37.201512],[127.024518,37.20089],[127.026651,37.200418],[127.024676,37.198093],[127.021604,37.196794],[127.017528,37.195461],[127.013604,37.194809],[127.011036,37.193752],[127.009818,37.192405],[127.008449,37.189225],[127.007845,37.186997],[127.007019,37.187733],[126.997667,37.190494],[126.997424,37.191719],[126.997443,37.192507],[126.995223,37.19397],[126.990882,37.194517],[126.987549,37.194591],[126.985386,37.194932],[126.984765,37.195228],[126.984218,37.195727],[126.983869,37.196493],[126.983732,37.197582],[126.98417,37.198598],[126.985566,37.200233],[126.985103,37.201941],[126.981516,37.205733],[126.980573,37.20654],[126.979986,37.206823],[126.979252,37.208796],[126.979225,37.209636],[126.979743,37.212482],[126.979926,37.212759],[126.98419,37.214061],[126.987717,37.214938],[126.993855,37.216869],[126.997331,37.218887],[126.999513,37.219655],[127.003426,37.22005],[127.003232,37.220754],[127.003129,37.222797],[127.006992,37.226986],[127.008096,37.227845],[127.009866,37.227307],[127.011579,37.227258],[127.013596,37.226875],[127.016583,37.225668],[127.021371,37.224236]]]]}},{"type":"Feature","properties":{"dong":"동탄2동","gu":"동탄구"},"geometry":{"type":"MultiPolygon","coordinates":[[[[127.083473,37.200476],[127.083916,37.199205],[127.083846,37.197263],[127.082767,37.194234],[127.082883,37.192567],[127.08313,37.191788],[127.083505,37.191367],[127.084171,37.189481],[127.083925,37.185879],[127.083615,37.184198],[127.080127,37.18452],[127.079181,37.184822],[127.079037,37.185354],[127.078587,37.18604],[127.074518,37.187311],[127.073073,37.187094],[127.071059,37.184038],[127.066594,37.184071],[127.066061,37.184316],[127.065324,37.186445],[127.068143,37.189148],[127.068636,37.190618],[127.067245,37.191018],[127.065647,37.192156],[127.065541,37.19317],[127.065677,37.194333],[127.066035,37.194665],[127.066023,37.195718],[127.064972,37.197749],[127.073151,37.199596],[127.077422,37.200348],[127.080085,37.200689],[127.083473,37.200476]]]]}},{"type":"Feature","properties":{"dong":"동탄1동","gu":"동탄구"},"geometry":{"type":"MultiPolygon","coordinates":[[[[127.075583,37.2259],[127.078776,37.222849],[127.082325,37.219828],[127.088737,37.21646],[127.088115,37.21445],[127.087591,37.213474],[127.087215,37.212927],[127.086324,37.212315],[127.084575,37.209726],[127.084612,37.209437],[127.085252,37.208494],[127.085729,37.208081],[127.086457,37.206658],[127.086537,37.206147],[127.086017,37.203628],[127.085493,37.203092],[127.084628,37.202573],[127.083643,37.201095],[127.083473,37.200476],[127.080085,37.200689],[127.077422,37.200348],[127.073151,37.199596],[127.064972,37.197749],[127.061466,37.199401],[127.059504,37.199656],[127.059295,37.204634],[127.059529,37.20575],[127.062364,37.211241],[127.063606,37.212279],[127.064375,37.212076],[127.070715,37.213702],[127.069086,37.219724],[127.068222,37.220332],[127.06753,37.222141],[127.068248,37.223132],[127.07058,37.224946],[127.072606,37.226121],[127.07322,37.226317],[127.075583,37.2259]]]]}},{"type":"Feature","properties":{"dong":"동탄3동","gu":"동탄구"},"geometry":{"type":"MultiPolygon","coordinates":[[[[127.064375,37.212076],[127.063606,37.212279],[127.062364,37.211241],[127.059529,37.20575],[127.059295,37.204634],[127.059504,37.199656],[127.061466,37.199401],[127.056616,37.197205],[127.054412,37.197463],[127.051726,37.197018],[127.050407,37.196327],[127.049585,37.196841],[127.05001,37.19806],[127.051658,37.200393],[127.052971,37.201478],[127.053096,37.202007],[127.052827,37.202934],[127.048912,37.20661],[127.048671,37.20712],[127.048664,37.208539],[127.048838,37.209396],[127.049541,37.210732],[127.050508,37.211808],[127.051341,37.210871],[127.051031,37.210266],[127.051425,37.208742],[127.052616,37.208341],[127.053875,37.208133],[127.054381,37.20845],[127.056223,37.210666],[127.05627,37.212202],[127.054828,37.213099],[127.053336,37.214277],[127.052836,37.21486],[127.055873,37.218228],[127.056536,37.218637],[127.058684,37.22051],[127.060325,37.221476],[127.061611,37.220652],[127.062339,37.21909],[127.06322,37.216594],[127.064375,37.212076]]]]}},{"type":"Feature","properties":{"dong":"새솔동","gu":"만세구"},"geometry":{"type":"MultiPolygon","coordinates":[[[[126.804644,37.293183],[126.808256,37.293473],[126.811725,37.293395],[126.814637,37.292807],[126.817261,37.291652],[126.819323,37.290532],[126.82075,37.289369],[126.823487,37.286438],[126.825202,37.283092],[126.825562,37.281064],[126.82683,37.278535],[126.828064,37.277078],[126.829019,37.276733],[126.83107,37.276783],[126.832166,37.277063],[126.834928,37.276824],[126.835614,37.276575],[126.836746,37.275586],[126.837264,37.274925],[126.837131,37.273422],[126.837533,37.272195],[126.839485,37.269552],[126.84143,37.26765],[126.842898,37.267268],[126.84523,37.265896],[126.845458,37.264921],[126.846075,37.264183],[126.846564,37.264069],[126.846256,37.262974],[126.8452,37.260861],[126.845401,37.260199],[126.845818,37.260006],[126.845771,37.259752],[126.84494,37.259845],[126.844565,37.260877],[126.844852,37.261601],[126.844231,37.262866],[126.845031,37.263494],[126.844245,37.263978],[126.844268,37.264232],[126.841246,37.266322],[126.840924,37.266906],[126.837411,37.270692],[126.83548,37.270964],[126.831177,37.273671],[126.828939,37.270668],[126.82789,37.270526],[126.827083,37.270677],[126.825563,37.27143],[126.824603,37.272283],[126.823245,37.273895],[126.821467,37.274782],[126.821138,37.274702],[126.820028,37.275906],[126.819196,37.276135],[126.819022,37.276456],[126.817075,37.277137],[126.817011,37.277469],[126.816005,37.277912],[126.814847,37.277769],[126.813765,37.278611],[126.811783,37.279048],[126.809815,37.280579],[126.810125,37.281468],[126.810755,37.28194],[126.810987,37.283268],[126.811965,37.283157],[126.811957,37.284016],[126.813661,37.284611],[126.813853,37.285041],[126.81272,37.286089],[126.810613,37.286779],[126.809545,37.286109],[126.808082,37.285866],[126.80687,37.284845],[126.804871,37.284482],[126.804488,37.28366],[126.804644,37.293183]]]]}},{"type":"Feature","properties":{"dong":"동탄5동","gu":"동탄구"},"geometry":{"type":"MultiPolygon","coordinates":[[[[127.088963,37.216359],[127.090521,37.216763],[127.09253,37.217533],[127.095582,37.218293],[127.104645,37.219855],[127.107165,37.219708],[127.110095,37.219311],[127.115175,37.219146],[127.117385,37.219965],[127.119093,37.219397],[127.126715,37.217512],[127.129657,37.217456],[127.13421,37.216026],[127.136176,37.215641],[127.136757,37.215681],[127.140021,37.217504],[127.144299,37.218641],[127.14791,37.219054],[127.149563,37.21896],[127.151253,37.218724],[127.151604,37.218544],[127.151435,37.215804],[127.151718,37.214139],[127.15541,37.209572],[127.156961,37.208519],[127.157769,37.207168],[127.155887,37.205953],[127.155367,37.203463],[127.154311,37.20212],[127.153386,37.201907],[127.152765,37.200849],[127.152669,37.200243],[127.152299,37.199981],[127.151957,37.199106],[127.152294,37.198329],[127.150389,37.198207],[127.148769,37.197108],[127.146177,37.196851],[127.145772,37.196579],[127.144711,37.196851],[127.144108,37.196305],[127.140564,37.196121],[127.139018,37.196248],[127.137923,37.195372],[127.135884,37.195371],[127.133895,37.196497],[127.131469,37.195656],[127.131522,37.198046],[127.131083,37.198161],[127.130433,37.201282],[127.120867,37.201876],[127.121156,37.202736],[127.116199,37.203715],[127.109809,37.203323],[127.108369,37.203416],[127.103485,37.204375],[127.098921,37.20475],[127.086268,37.204726],[127.086537,37.206147],[127.086457,37.206658],[127.085729,37.208081],[127.085252,37.208494],[127.084612,37.209437],[127.084575,37.209726],[127.086324,37.212315],[127.087215,37.212927],[127.087591,37.213474],[127.088115,37.21445],[127.088737,37.21646],[127.088963,37.216359]]]]}},{"type":"Feature","properties":{"dong":"동탄4동","gu":"동탄구"},"geometry":{"type":"MultiPolygon","coordinates":[[[[127.098921,37.20475],[127.103485,37.204375],[127.108369,37.203416],[127.109809,37.203323],[127.116199,37.203715],[127.121156,37.202736],[127.120867,37.201876],[127.130433,37.201282],[127.131083,37.198161],[127.131522,37.198046],[127.131469,37.195656],[127.130037,37.196065],[127.127068,37.195703],[127.126377,37.196147],[127.125133,37.195987],[127.124554,37.195148],[127.122804,37.195118],[127.119613,37.193478],[127.120695,37.192296],[127.120713,37.191567],[127.121436,37.191183],[127.119288,37.189666],[127.118789,37.189728],[127.117826,37.189292],[127.116609,37.189064],[127.116036,37.189442],[127.115493,37.188766],[127.115556,37.187052],[127.115806,37.186373],[127.114831,37.186105],[127.114049,37.185582],[127.113513,37.18492],[127.113173,37.183959],[127.10843,37.184344],[127.104816,37.18534],[127.102745,37.186614],[127.103304,37.188456],[127.104247,37.189375],[127.104009,37.190164],[127.103236,37.189609],[127.10166,37.189447],[127.100071,37.189555],[127.098752,37.190903],[127.098921,37.20475]]]]}},{"type":"Feature","properties":{"dong":"동탄7동","gu":"동탄구"},"geometry":{"type":"MultiPolygon","coordinates":[[[[127.111514,37.180019],[127.11273,37.179555],[127.113714,37.179377],[127.116547,37.17981],[127.11859,37.179574],[127.119761,37.179608],[127.121956,37.179222],[127.122674,37.179224],[127.124297,37.179744],[127.126113,37.179417],[127.124807,37.175964],[127.124178,37.173301],[127.123784,37.168762],[127.124354,37.168129],[127.125372,37.168677],[127.1265,37.16989],[127.126533,37.170919],[127.12763,37.170771],[127.127862,37.169652],[127.127827,37.169047],[127.129114,37.168628],[127.129983,37.168842],[127.130817,37.1683],[127.132553,37.168183],[127.133076,37.166715],[127.133786,37.16612],[127.133832,37.164867],[127.131206,37.16287],[127.129145,37.162027],[127.128284,37.162257],[127.1272,37.162156],[127.12415,37.163015],[127.122881,37.162879],[127.122809,37.162537],[127.121854,37.162606],[127.116766,37.164015],[127.11544,37.16405],[127.114516,37.165969],[127.11222,37.16564],[127.103508,37.165671],[127.102723,37.165603],[127.100042,37.164818],[127.091016,37.164779],[127.095691,37.17492],[127.096562,37.175821],[127.09769,37.176539],[127.098147,37.17744],[127.100429,37.177473],[127.103467,37.177812],[127.108203,37.178835],[127.111514,37.180019]]]]}},{"type":"Feature","properties":{"dong":"동탄8동","gu":"동탄구"},"geometry":{"type":"MultiPolygon","coordinates":[[[[127.088954,37.160525],[127.091016,37.164779],[127.100042,37.164818],[127.102723,37.165603],[127.103508,37.165671],[127.11222,37.16564],[127.114516,37.165969],[127.11544,37.16405],[127.116766,37.164015],[127.121854,37.162606],[127.122809,37.162537],[127.122881,37.162879],[127.12415,37.163015],[127.1272,37.162156],[127.128284,37.162257],[127.129145,37.162027],[127.127997,37.160838],[127.127882,37.159823],[127.128829,37.158482],[127.130593,37.15179],[127.129436,37.148646],[127.127079,37.145649],[127.124783,37.145359],[127.123387,37.144926],[127.122695,37.14451],[127.118952,37.143777],[127.114129,37.144616],[127.110881,37.143815],[127.109231,37.142686],[127.106169,37.142151],[127.104007,37.141951],[127.103719,37.142341],[127.103647,37.143575],[127.100949,37.146087],[127.099309,37.150214],[127.099215,37.151157],[127.097756,37.151701],[127.097632,37.152043],[127.098202,37.152878],[127.098727,37.153085],[127.098722,37.154035],[127.098231,37.154396],[127.09799,37.155851],[127.095707,37.157413],[127.095175,37.158508],[127.093861,37.159453],[127.092834,37.159303],[127.091622,37.159465],[127.088954,37.160525]]]]}},{"type":"Feature","properties":{"dong":"동탄9동","gu":"동탄구"},"geometry":{"type":"MultiPolygon","coordinates":[[[[127.132553,37.168183],[127.130817,37.1683],[127.129983,37.168842],[127.129114,37.168628],[127.127827,37.169047],[127.127862,37.169652],[127.12763,37.170771],[127.126533,37.170919],[127.1265,37.16989],[127.125372,37.168677],[127.124354,37.168129],[127.123784,37.168762],[127.124178,37.173301],[127.124807,37.175964],[127.126113,37.179417],[127.124297,37.179744],[127.122674,37.179224],[127.121956,37.179222],[127.119761,37.179608],[127.11859,37.179574],[127.116547,37.17981],[127.113714,37.179377],[127.11273,37.179555],[127.111514,37.180019],[127.115082,37.182058],[127.11691,37.183506],[127.11363,37.183555],[127.113173,37.183959],[127.113513,37.18492],[127.114049,37.185582],[127.114831,37.186105],[127.115806,37.186373],[127.115556,37.187052],[127.115493,37.188766],[127.116036,37.189442],[127.116609,37.189064],[127.117826,37.189292],[127.118789,37.189728],[127.119288,37.189666],[127.121436,37.191183],[127.120713,37.191567],[127.120695,37.192296],[127.119613,37.193478],[127.122804,37.195118],[127.124554,37.195148],[127.125133,37.195987],[127.126377,37.196147],[127.127068,37.195703],[127.130037,37.196065],[127.131469,37.195656],[127.133895,37.196497],[127.135884,37.195371],[127.137923,37.195372],[127.139018,37.196248],[127.140564,37.196121],[127.144108,37.196305],[127.144711,37.196851],[127.145772,37.196579],[127.146177,37.196851],[127.148769,37.197108],[127.150389,37.198207],[127.152294,37.198329],[127.15266,37.198129],[127.152846,37.197232],[127.153772,37.197623],[127.154729,37.197455],[127.155456,37.197735],[127.15572,37.19666],[127.160909,37.191725],[127.161311,37.190712],[127.160231,37.185891],[127.159597,37.184662],[127.159078,37.184135],[127.160686,37.180406],[127.159257,37.177976],[127.157623,37.176789],[127.156396,37.17663],[127.155634,37.176764],[127.15347,37.174599],[127.151149,37.171605],[127.148408,37.169675],[127.14779,37.169529],[127.145596,37.169646],[127.144423,37.170134],[127.143832,37.17018],[127.139394,37.169456],[127.133307,37.169205],[127.133013,37.169092],[127.132553,37.168183]]]]}}]}
