{
"type": "FeatureCollection",
"name": "hwaseong_sgg_boundary",
"crs": { "type": "name", "properties": { "name": "urn:ogc:def:crs:OGC:1.3:CRS84" } },
"features": [
{ "type": "Feature", "properties": { "sido_name": "경기도", "sgg_name": "화성시", "sgg_code": "41590" }, "geometry": { "type": "MultiPolygon", "coordinates": [ [ [ [ 126.557412379421351, 37.064484856584578 ], [ 126.557764911374619, 37.062958880200448 ], [ 126.559294310588768, 37.061790397289883 ], [ 126.553668774359025, 37.058348937910147 ], [ 126.552884816001864, 37.059292646647947 ], [ 126.557412379421351, 37.064484856584578 ] ] ], [ [ [ 126.73031935965183, 37.072179115564055 ], [ 126.731912155679055, 37.077722967738467 ], [ 126.735810820956274, 37.082999983410446 ], [ 126.73525967401504, 37.092644930618285 ], [ 126.736080754255383, 37.09308181372608 ], [ 126.741949455743367, 37.083228675681873 ], [ 126.742509534815738, 37.076762391591153 ], [ 126.741122947332073, 37.075635779776633 ], [ 126.731697624642052, 37.072226362333396 ], [ 126.73031935965183, 37.072179115564055 ] ] ], [ [ [ 126.537037030694933, 37.108938013511896 ], [ 126.53794955742022, 37.110757218226169 ], [ 126.537497883766193, 37.112430139611043 ], [ 126.540168963658346, 37.111809553399553 ], [ 126.541173931292178, 37.108983935722094 ], [ 126.541667338402434, 37.102761594370584 ], [ 126.539098448366445, 37.099050690740114 ], [ 126.537037030694933, 37.108938013511896 ] ] ], [ [ [ 126.615578204226125, 37.119593722072779 ], [ 126.613846487369955, 37.117210120498555 ], [ 126.612801908925277, 37.117803989400407 ], [ 126.614503248113493, 37.11965217560693 ], [ 126.615578204226125, 37.119593722072779 ] ] ], [ [ [ 126.637532967167104, 37.139981659816961 ], [ 126.637307936498956, 37.143437992731585 ], [ 126.637752995511534, 37.143535877614575 ], [ 126.639188161746404, 37.142273091483247 ], [ 126.638807645745771, 37.139487895440958 ], [ 126.637532967167104, 37.139981659816961 ] ] ], [ [ [ 126.744274595967312, 37.157638541103445 ], [ 126.741811902652941, 37.152829655479152 ], [ 126.737524981317875, 37.14973514652052 ], [ 126.733668306945646, 37.149859002931834 ], [ 126.731136625589343, 37.14910458653118 ], [ 126.732082938401305, 37.146418920967477 ], [ 126.728066983168162, 37.138759183468423 ], [ 126.72190580185972, 37.136585890432819 ], [ 126.719224100944743, 37.131995906049497 ], [ 126.717300451058193, 37.130757316042597 ], [ 126.713780610748287, 37.129426992941148 ], [ 126.711295713193877, 37.131096105224252 ], [ 126.706394136534414, 37.131039729346803 ], [ 126.705026033757221, 37.128788743958459 ], [ 126.704838542380784, 37.123137266097771 ], [ 126.698242917347898, 37.119789437649388 ], [ 126.692375995328547, 37.11916714096342 ], [ 126.688478717811208, 37.11611632936647 ], [ 126.687712197339621, 37.11510150063944 ], [ 126.68837721660573, 37.113956828707913 ], [ 126.686128201517874, 37.111924478183454 ], [ 126.682549881961762, 37.11178267837569 ], [ 126.677910710287335, 37.115030678049244 ], [ 126.677963085356595, 37.115648131502169 ], [ 126.680888258989171, 37.115598449840547 ], [ 126.683181361192993, 37.116986263085558 ], [ 126.684499835013781, 37.11958758561498 ], [ 126.681928926267958, 37.128438394063188 ], [ 126.677440240631441, 37.134974129845027 ], [ 126.676221629889952, 37.135625531070446 ], [ 126.673696240035767, 37.134699078592483 ], [ 126.673509121361278, 37.137992378365361 ], [ 126.679013280737308, 37.140733681722175 ], [ 126.682559242990735, 37.148851608581396 ], [ 126.683712397610662, 37.149736163340059 ], [ 126.694499763267515, 37.152364289403359 ], [ 126.690733649216867, 37.157183638895511 ], [ 126.684167208377062, 37.15967829550447 ], [ 126.689257107251223, 37.167843795218673 ], [ 126.68360091588292, 37.163246164267754 ], [ 126.682610612982472, 37.160366123935155 ], [ 126.670122969848833, 37.155704786661786 ], [ 126.663926587879544, 37.15656826064339 ], [ 126.659035600088615, 37.153822715189932 ], [ 126.65485230669573, 37.152972689121235 ], [ 126.650662200226108, 37.153622157999848 ], [ 126.649335778586206, 37.154543256439418 ], [ 126.649436884141167, 37.156569936702311 ], [ 126.657854300679716, 37.159239582221552 ], [ 126.660651472889001, 37.162111207093048 ], [ 126.660589905176394, 37.163477505377379 ], [ 126.658765850803988, 37.164820228120185 ], [ 126.657652128721281, 37.167373203777721 ], [ 126.655860758991892, 37.173493263533167 ], [ 126.655552482474064, 37.177660021543893 ], [ 126.65375531207323, 37.17921223513514 ], [ 126.653275842197175, 37.180918123009533 ], [ 126.656008982913733, 37.180926302452704 ], [ 126.658502472594435, 37.178422402348232 ], [ 126.66085991044551, 37.178026803841114 ], [ 126.661855530320764, 37.180114866164466 ], [ 126.665045715595241, 37.183313660980609 ], [ 126.665661818630127, 37.186193432482433 ], [ 126.66455616479017, 37.18742166986592 ], [ 126.666151646943376, 37.189034001050139 ], [ 126.667850892793311, 37.188510747646497 ], [ 126.669733227441185, 37.189143660561029 ], [ 126.664727091555548, 37.191465597815295 ], [ 126.659892600584683, 37.19047256229954 ], [ 126.658356207146653, 37.189890402936783 ], [ 126.654509888706315, 37.185860854143726 ], [ 126.654111818653234, 37.183674300870955 ], [ 126.654774990096982, 37.182796899115367 ], [ 126.650504031343544, 37.182533118989681 ], [ 126.649272880770653, 37.183760313552185 ], [ 126.655152063560664, 37.189654729459754 ], [ 126.655337531853775, 37.190383845634763 ], [ 126.651056808853212, 37.191086733429159 ], [ 126.651622304136097, 37.191646273107857 ], [ 126.65727472840905, 37.190957637476004 ], [ 126.660326626260456, 37.196299727333873 ], [ 126.662002430206286, 37.196769047464514 ], [ 126.665683844366342, 37.196351099181996 ], [ 126.66578962371446, 37.195761435543439 ], [ 126.671209299051171, 37.194389032707612 ], [ 126.669180545875321, 37.196461306891891 ], [ 126.677963915423987, 37.197613260838168 ], [ 126.683887905691904, 37.201221464418438 ], [ 126.691927185044591, 37.203141383358094 ], [ 126.692688893360099, 37.206350230770042 ], [ 126.699158824660742, 37.213737960303753 ], [ 126.691746914846163, 37.214298134470944 ], [ 126.690214376908827, 37.213024600345719 ], [ 126.688435996721665, 37.207547773475049 ], [ 126.684901425552695, 37.208287428828854 ], [ 126.684178221827267, 37.209452006904158 ], [ 126.679213904727831, 37.207177758243269 ], [ 126.678943854804785, 37.203954556563517 ], [ 126.676804044761013, 37.200789359174294 ], [ 126.674058071039951, 37.199691960710432 ], [ 126.672449326885172, 37.20022719892409 ], [ 126.666233141634905, 37.208644243375105 ], [ 126.665398142267662, 37.211681663996494 ], [ 126.666105247119333, 37.216744537814094 ], [ 126.666865605987368, 37.217935208782229 ], [ 126.675567453175574, 37.22110815660011 ], [ 126.677384705511599, 37.223595064441092 ], [ 126.673542619883619, 37.227779978061506 ], [ 126.672958517183716, 37.229583239450918 ], [ 126.671539509972035, 37.230301171217945 ], [ 126.668573187586432, 37.229162668641898 ], [ 126.664767859550778, 37.233643501942055 ], [ 126.664528865838221, 37.236785808493188 ], [ 126.661312528238568, 37.238231196325579 ], [ 126.656702867809557, 37.237800722480479 ], [ 126.657632906208889, 37.23594816900345 ], [ 126.655573465869296, 37.234755050655714 ], [ 126.65144223960138, 37.238795224013501 ], [ 126.648080342455685, 37.249010749184407 ], [ 126.649769820799378, 37.251589411977179 ], [ 126.649935648915189, 37.254173204712529 ], [ 126.650572045836938, 37.254175480875816 ], [ 126.652374394950556, 37.250754186038392 ], [ 126.656150000523922, 37.248007162538912 ], [ 126.654980847517891, 37.246813538319799 ], [ 126.667143762018696, 37.244397233101459 ], [ 126.668966015137443, 37.242669245730191 ], [ 126.676606838670864, 37.246474620789833 ], [ 126.680284872978504, 37.256017591502605 ], [ 126.675398700245353, 37.257428113313281 ], [ 126.676906259796198, 37.260732015041221 ], [ 126.678248593608927, 37.261349770105952 ], [ 126.679796209561758, 37.260588696922184 ], [ 126.679807736007461, 37.257965765180124 ], [ 126.681124652286698, 37.25721884947496 ], [ 126.684869657548106, 37.259403495266213 ], [ 126.686732970133917, 37.262706341796275 ], [ 126.69086341433713, 37.262567888675271 ], [ 126.693120196100821, 37.261524171055221 ], [ 126.698564217592661, 37.261538614815073 ], [ 126.704113729824869, 37.258628539684814 ], [ 126.708993720029227, 37.25864096142476 ], [ 126.717262677760644, 37.256112337246527 ], [ 126.721671165458886, 37.256797162566905 ], [ 126.72546087868156, 37.258576316415294 ], [ 126.726589913448819, 37.257829922388275 ], [ 126.726690133919419, 37.255955703144394 ], [ 126.72782268722257, 37.254233568272909 ], [ 126.729417389584526, 37.254462514256694 ], [ 126.734030875584125, 37.250349498974465 ], [ 126.735530962560333, 37.250727634115961 ], [ 126.73833498237488, 37.253957945715349 ], [ 126.740711517071105, 37.255150704560435 ], [ 126.748933644695313, 37.255780022080323 ], [ 126.757007793350056, 37.25504789974962 ], [ 126.763865923144508, 37.252812489750546 ], [ 126.767539612802352, 37.248321588253503 ], [ 126.77247515291765, 37.249014534913996 ], [ 126.775178989238754, 37.247931426881898 ], [ 126.777612262289225, 37.237904762029444 ], [ 126.781737318820987, 37.234390867755934 ], [ 126.786410703496159, 37.232984768457015 ], [ 126.785149886083857, 37.234510677530949 ], [ 126.783098064811682, 37.234370945744132 ], [ 126.77829702582703, 37.239245332302744 ], [ 126.778063275062152, 37.245949095728285 ], [ 126.789362295928271, 37.244374674197793 ], [ 126.789523780231818, 37.247824570675206 ], [ 126.788091706530594, 37.255174658022618 ], [ 126.793040191418214, 37.259452085019838 ], [ 126.791537978423776, 37.26136189385381 ], [ 126.790110382119636, 37.267321665783648 ], [ 126.796138306342428, 37.270918123760936 ], [ 126.802171704256168, 37.269631064028921 ], [ 126.80927769437848, 37.266808589199499 ], [ 126.810473978446439, 37.267186257318635 ], [ 126.809914302573276, 37.268653379726835 ], [ 126.808375574217806, 37.268412291872451 ], [ 126.803607327176323, 37.276552002005737 ], [ 126.799196103241542, 37.279003730514091 ], [ 126.801075761489216, 37.279689937737047 ], [ 126.802607256945663, 37.282936915465235 ], [ 126.804487668692005, 37.283659779119752 ], [ 126.804644245556929, 37.293183338654032 ], [ 126.811725386008888, 37.293395473344219 ], [ 126.819322771178577, 37.290531882220662 ], [ 126.823487001439545, 37.286438382476732 ], [ 126.828063913609213, 37.277078386403851 ], [ 126.835613878513101, 37.276574618622348 ], [ 126.837264416281016, 37.274925207558795 ], [ 126.837532526935789, 37.27219479223924 ], [ 126.841430098865743, 37.267650331522482 ], [ 126.847173473516776, 37.265748162292084 ], [ 126.852724977962026, 37.272036610680239 ], [ 126.858224308585307, 37.274177957768124 ], [ 126.871321643436374, 37.274709068262325 ], [ 126.87666801839984, 37.277720988822118 ], [ 126.878154344242986, 37.27923406705338 ], [ 126.878529411488387, 37.283945628822849 ], [ 126.879693512427238, 37.285666821673729 ], [ 126.886180960817768, 37.280528887961538 ], [ 126.890913013203487, 37.282020360418976 ], [ 126.891085871647689, 37.283845411968244 ], [ 126.892872686158569, 37.28645155338625 ], [ 126.899548187779857, 37.290203972228724 ], [ 126.898412362086233, 37.293997542886615 ], [ 126.901499465130641, 37.290976652525679 ], [ 126.905545564469008, 37.289887211774875 ], [ 126.911984728001158, 37.290149229860461 ], [ 126.913854917661979, 37.291468905902157 ], [ 126.917564283087131, 37.285393835703516 ], [ 126.927374559101992, 37.278797346317106 ], [ 126.928681820604453, 37.276719128760917 ], [ 126.927264684416699, 37.271431339651478 ], [ 126.929008192603789, 37.263656267095747 ], [ 126.93084573671328, 37.261042058333452 ], [ 126.935132385610146, 37.256917312797853 ], [ 126.939504048940691, 37.25658882270524 ], [ 126.946529725243209, 37.257504088671801 ], [ 126.950046117156973, 37.255843884866394 ], [ 126.949982613127148, 37.253818836016691 ], [ 126.952244335242227, 37.251472629692238 ], [ 126.953365752503302, 37.248128708645709 ], [ 126.956188084124761, 37.246770430228018 ], [ 126.957958601486254, 37.242598272232691 ], [ 126.957764679630216, 37.239764806440732 ], [ 126.966954232836457, 37.235625176841381 ], [ 126.970393301136696, 37.229196744879594 ], [ 126.972823082193855, 37.228720831700642 ], [ 126.978224580878717, 37.229572911663595 ], [ 126.980360066271345, 37.232244803518242 ], [ 126.985723463543522, 37.232636662926673 ], [ 126.988115380165667, 37.233594619232015 ], [ 126.992645948238348, 37.230852458167462 ], [ 127.003683955853234, 37.229291369782516 ], [ 127.021662617855412, 37.224290456889321 ], [ 127.02395591418437, 37.227184177187702 ], [ 127.022898526402074, 37.229514548473432 ], [ 127.029643913682776, 37.232010238325991 ], [ 127.036699891523199, 37.238400803242776 ], [ 127.037137196826151, 37.240500473312274 ], [ 127.039683262466326, 37.243503054255669 ], [ 127.040847531334109, 37.243769592767201 ], [ 127.04042661129985, 37.247004495209289 ], [ 127.041090330386652, 37.247374416762717 ], [ 127.04262323978682, 37.24675055836817 ], [ 127.039121697096462, 37.23723913429771 ], [ 127.041642766550098, 37.235198003294791 ], [ 127.044214032564767, 37.234437891488369 ], [ 127.04594803705946, 37.232787118152984 ], [ 127.051660425333679, 37.234314662996674 ], [ 127.053621484731423, 37.233443855041443 ], [ 127.053833736892685, 37.232316796043342 ], [ 127.052558064541856, 37.231060161848788 ], [ 127.058274683377007, 37.234131736913888 ], [ 127.063259002493425, 37.239167121863389 ], [ 127.066679908350324, 37.240148085703588 ], [ 127.068426203334027, 37.237647445068291 ], [ 127.067996393405636, 37.234681443555054 ], [ 127.068922531343404, 37.229927631278343 ], [ 127.074559917470637, 37.228133924748334 ], [ 127.075583396927215, 37.225899906884543 ], [ 127.081917805686842, 37.22015457062858 ], [ 127.088963143672686, 37.21635856570277 ], [ 127.104645493234671, 37.219855161098813 ], [ 127.115175172365028, 37.219146182015713 ], [ 127.117384716295462, 37.219964561509755 ], [ 127.136175768444218, 37.215640724284469 ], [ 127.144299217327614, 37.21864116233241 ], [ 127.151253213265903, 37.218723812368964 ], [ 127.151718090876287, 37.214139277162687 ], [ 127.157768781119358, 37.207167677962651 ], [ 127.155886797243298, 37.205953334404761 ], [ 127.155367229134185, 37.203462736295847 ], [ 127.153385812553225, 37.201907411330559 ], [ 127.151956957445591, 37.199106018987408 ], [ 127.152846122334751, 37.197231603814004 ], [ 127.155455894649393, 37.197735227959583 ], [ 127.161319919364061, 37.190659535825198 ], [ 127.160230762484574, 37.185891338855775 ], [ 127.159078217804591, 37.184134784815228 ], [ 127.160650072934089, 37.180306044593515 ], [ 127.159231269741184, 37.17794811543493 ], [ 127.157622832671578, 37.176788593032349 ], [ 127.155633964845123, 37.176763674642004 ], [ 127.151148847714296, 37.171604619935955 ], [ 127.147888291751997, 37.169532994603273 ], [ 127.143832341331901, 37.170180032099211 ], [ 127.133012830278901, 37.169092366596615 ], [ 127.132559506549541, 37.168063351881713 ], [ 127.133872079590731, 37.164928245164496 ], [ 127.127943554200982, 37.160723843098381 ], [ 127.130592920060764, 37.151790257718652 ], [ 127.129436381498408, 37.148645626462262 ], [ 127.127079277371706, 37.145649477492405 ], [ 127.118951605670773, 37.143776853000553 ], [ 127.114129405847038, 37.144616469599463 ], [ 127.109231262880272, 37.142686038086715 ], [ 127.104155589434924, 37.141922152673061 ], [ 127.103646601986483, 37.14357454892091 ], [ 127.100949273072018, 37.146087206018066 ], [ 127.099214731547377, 37.151157482845939 ], [ 127.097756037389644, 37.151700926432603 ], [ 127.09872743035082, 37.153084974608426 ], [ 127.097990235906224, 37.155850796151512 ], [ 127.095175110863593, 37.158507778708781 ], [ 127.088953558400007, 37.160524542726584 ], [ 127.083820505863201, 37.160848044577619 ], [ 127.083240780760292, 37.161697961035507 ], [ 127.079877944171855, 37.161353139936004 ], [ 127.078904904102487, 37.162515002188066 ], [ 127.076251697642803, 37.162172597577445 ], [ 127.075392819000186, 37.162600396350243 ], [ 127.075900684924918, 37.163679397170519 ], [ 127.073467819812251, 37.165492082421252 ], [ 127.073214734355346, 37.1669796403418 ], [ 127.071274471171066, 37.168206498859313 ], [ 127.070728200798584, 37.173923371130456 ], [ 127.073025259211633, 37.174558393387528 ], [ 127.072217982469652, 37.175975830851478 ], [ 127.072139538565509, 37.182019453450877 ], [ 127.071059042082254, 37.184037604613131 ], [ 127.066061173039586, 37.184316260900445 ], [ 127.065324430808815, 37.186445406596384 ], [ 127.068142557349759, 37.189147523656295 ], [ 127.06863618418403, 37.190618454132235 ], [ 127.065646609290766, 37.19215585724556 ], [ 127.066022686516703, 37.19571779068923 ], [ 127.064972355239746, 37.197748879515956 ], [ 127.061466083139123, 37.199400718442 ], [ 127.056615915845796, 37.197205208376182 ], [ 127.051962222095057, 37.197082910620971 ], [ 127.049440253961421, 37.195906026746236 ], [ 127.038723162872969, 37.198327871472259 ], [ 127.036887851209883, 37.199942112657027 ], [ 127.026651016711227, 37.200417705675434 ], [ 127.024130348787565, 37.197844237961931 ], [ 127.011036470653579, 37.193751529834138 ], [ 127.00981837133574, 37.192404500344601 ], [ 127.007845069058121, 37.186996904207973 ], [ 127.002426088664365, 37.182048039927608 ], [ 127.004613126945586, 37.181476973517988 ], [ 127.004557896574738, 37.18041448672718 ], [ 126.999769964362216, 37.177576071396665 ], [ 126.996497206760637, 37.178461362466315 ], [ 126.995152579069781, 37.177272545210862 ], [ 126.995253593584906, 37.175013772061249 ], [ 127.000068938220096, 37.173553677350021 ], [ 127.006530292798786, 37.168064181800894 ], [ 127.019048505625335, 37.167291952217525 ], [ 127.028095052483465, 37.163121926457094 ], [ 127.026974418837895, 37.160661266291157 ], [ 127.02975744049786, 37.158759143469489 ], [ 127.030486779123706, 37.156007184235925 ], [ 127.02783434211463, 37.153794922249325 ], [ 127.028073140464002, 37.152171052425295 ], [ 127.03013131814123, 37.149523502427783 ], [ 127.029824486035167, 37.145315982528992 ], [ 127.035633432695661, 37.136019580557736 ], [ 127.030396210070549, 37.134572275819117 ], [ 127.028871793860844, 37.133374145400055 ], [ 127.024218636402608, 37.13322139418888 ], [ 127.017504911686174, 37.129923292449078 ], [ 127.005374996540368, 37.128096389779444 ], [ 127.002430076229047, 37.124381505180843 ], [ 126.998098328394207, 37.12308776706459 ], [ 126.999514074808602, 37.122409780316445 ], [ 127.002394226730843, 37.123620686848263 ], [ 127.000690819454718, 37.118385416066396 ], [ 126.996655015332053, 37.111983000783177 ], [ 126.995728161949842, 37.108204325333396 ], [ 126.997853358561642, 37.104453308756113 ], [ 126.998308044402066, 37.100568995660765 ], [ 126.997035911055221, 37.097129202626505 ], [ 126.99892736130154, 37.092587111735639 ], [ 126.997772317658928, 37.091264084542232 ], [ 126.993593426850083, 37.089582067528823 ], [ 126.991726060701083, 37.084770637401348 ], [ 126.995128049997817, 37.070048089305807 ], [ 126.987598251411839, 37.070451827335297 ], [ 126.984626665892264, 37.071650239041404 ], [ 126.975543660632397, 37.070601960732105 ], [ 126.968827022184854, 37.073427266886789 ], [ 126.967478405691111, 37.072069156468984 ], [ 126.966404275047879, 37.069106529253865 ], [ 126.961245064909477, 37.069818993303215 ], [ 126.956447837369026, 37.068268071080531 ], [ 126.95136834241606, 37.068560534711409 ], [ 126.945493243015179, 37.065560779031372 ], [ 126.944090633590008, 37.063298055250009 ], [ 126.940383631742137, 37.060812982122457 ], [ 126.931654807898383, 37.062694015664675 ], [ 126.930238890555131, 37.067104535725598 ], [ 126.928647216549649, 37.068037134945719 ], [ 126.9231835675876, 37.066403493774175 ], [ 126.922045224878588, 37.065299761436002 ], [ 126.914878326527642, 37.065772864692164 ], [ 126.910394066059581, 37.068826691924087 ], [ 126.90576566676036, 37.069657689463313 ], [ 126.904899112271778, 37.07152247566107 ], [ 126.905973626269812, 37.072200732150193 ], [ 126.905747786317178, 37.073299339588807 ], [ 126.904914093712719, 37.073637689690521 ], [ 126.902069246969219, 37.072036886100356 ], [ 126.901075437706837, 37.070203119136316 ], [ 126.89622509631414, 37.068498508801191 ], [ 126.891376620148009, 37.067026953033086 ], [ 126.883910545724419, 37.066563616042743 ], [ 126.881208465521524, 37.058291427382315 ], [ 126.853107752805755, 37.020002389057659 ], [ 126.846925222699568, 37.015849018482555 ], [ 126.838063783812785, 37.013654533710287 ], [ 126.796914789428769, 37.012060084370887 ], [ 126.796659797392024, 37.016020359051957 ], [ 126.795030874221098, 37.018035773140369 ], [ 126.794562923769277, 37.02579170938629 ], [ 126.789059824301788, 37.029171866260128 ], [ 126.751005638798333, 37.029251007149121 ], [ 126.748818253808253, 37.030098032980149 ], [ 126.744751988696763, 37.036319035374461 ], [ 126.744797831287471, 37.041624156496873 ], [ 126.748367383521014, 37.049035044381021 ], [ 126.75658886207421, 37.056386047610744 ], [ 126.768953967701435, 37.060140625286664 ], [ 126.770181838574089, 37.063846270300559 ], [ 126.762886370881702, 37.062798354812024 ], [ 126.761338433393547, 37.068078872105126 ], [ 126.76412792489397, 37.06897283311109 ], [ 126.76405681622883, 37.071892965928058 ], [ 126.762770993653746, 37.075222456513238 ], [ 126.764945639965731, 37.08469850807186 ], [ 126.764239032610377, 37.086505959381391 ], [ 126.765596413002243, 37.089331276732054 ], [ 126.766595868475747, 37.089169575488739 ], [ 126.767109101862857, 37.090936128807918 ], [ 126.766284190022134, 37.093193942911469 ], [ 126.768234908879464, 37.095701392369172 ], [ 126.770330192236372, 37.101479932953161 ], [ 126.769822730747052, 37.103861031196551 ], [ 126.769043973714972, 37.102994263370896 ], [ 126.766346598763718, 37.103719011582591 ], [ 126.765342041490726, 37.105917857720939 ], [ 126.75827272116247, 37.111056928096829 ], [ 126.759809852311875, 37.117117214188731 ], [ 126.768739817578052, 37.127895961270568 ], [ 126.773999500396599, 37.128304607892218 ], [ 126.775515398254072, 37.129901582753448 ], [ 126.776099715804591, 37.132299270592817 ], [ 126.782704277414041, 37.135117017208678 ], [ 126.786821728459969, 37.132687789809623 ], [ 126.787486281954344, 37.129802786711394 ], [ 126.794926551936555, 37.129014530317896 ], [ 126.795762377226055, 37.134420109093341 ], [ 126.80112685600271, 37.138654652912173 ], [ 126.810377419146235, 37.140160094081189 ], [ 126.811949946240176, 37.139414307009837 ], [ 126.815389866171287, 37.142749145974797 ], [ 126.807646779757491, 37.144353728007452 ], [ 126.804511858557177, 37.151467719898996 ], [ 126.800450315274219, 37.153432533036558 ], [ 126.790315223576755, 37.149547757766655 ], [ 126.781246712067031, 37.152030935126106 ], [ 126.785533419133159, 37.154901841293295 ], [ 126.78831623415735, 37.155225061177866 ], [ 126.794989585840781, 37.158245202829313 ], [ 126.797602922958959, 37.162448850715606 ], [ 126.795763272484521, 37.166199048410533 ], [ 126.79618935453729, 37.170430239826629 ], [ 126.792004813344988, 37.173145563485122 ], [ 126.792592310020169, 37.176582270497221 ], [ 126.795567416463697, 37.179714322918613 ], [ 126.797281736767033, 37.186325816984301 ], [ 126.797105030137686, 37.188880877954801 ], [ 126.795307815961678, 37.181360080262088 ], [ 126.788617939973676, 37.173577103070301 ], [ 126.777976105344024, 37.164676785383591 ], [ 126.766439421059403, 37.164218330448826 ], [ 126.749233428676277, 37.166882357132501 ], [ 126.746516713466605, 37.165483731965701 ], [ 126.746461330904097, 37.160000634004511 ], [ 126.744274595967312, 37.157638541103445 ] ] ], [ [ [ 126.630615295233099, 37.173808765680491 ], [ 126.627106346819602, 37.167086777772035 ], [ 126.62240443239827, 37.163145653652428 ], [ 126.618212987770889, 37.157596908444077 ], [ 126.614470613752374, 37.155415808310067 ], [ 126.614647184772281, 37.156691467407988 ], [ 126.616884249846777, 37.15917412595396 ], [ 126.617471600209029, 37.161792991214206 ], [ 126.616218538175517, 37.173287619579362 ], [ 126.61845377560131, 37.177165586291174 ], [ 126.621823068992128, 37.178976957305039 ], [ 126.626656848886071, 37.175376236692081 ], [ 126.630615295233099, 37.173808765680491 ] ] ], [ [ [ 126.657719207292502, 37.20205673815255 ], [ 126.658127283195242, 37.202961138323865 ], [ 126.658908139716488, 37.202915982404335 ], [ 126.658662803111156, 37.201922715826818 ], [ 126.657719207292502, 37.20205673815255 ] ] ], [ [ [ 126.66312946986254, 37.20344421992138 ], [ 126.660277046079202, 37.204893994270236 ], [ 126.662142999814321, 37.205714046607895 ], [ 126.663516515891359, 37.204876451521251 ], [ 126.66312946986254, 37.20344421992138 ] ] ], [ [ [ 126.762678241835061, 37.260132221016562 ], [ 126.76216347249202, 37.261095749219265 ], [ 126.76564325043411, 37.261966938248172 ], [ 126.766469858638203, 37.259514666393613 ], [ 126.762678241835061, 37.260132221016562 ] ] ], [ [ [ 126.668758160952919, 37.273452101038075 ], [ 126.666684757733719, 37.275320271405143 ], [ 126.672856472614853, 37.2808856080024 ], [ 126.678665804155699, 37.283675243637653 ], [ 126.680166538521931, 37.283904200514584 ], [ 126.684968755434113, 37.280618091385499 ], [ 126.68001949460303, 37.274383570374688 ], [ 126.668758160952919, 37.273452101038075 ] ] ], [ [ [ 126.745887627129022, 37.283615590708045 ], [ 126.744910854117279, 37.283008821846956 ], [ 126.73423006208877, 37.283092249063799 ], [ 126.734754017756202, 37.285936085207915 ], [ 126.736659670186171, 37.288321350112128 ], [ 126.739415698838044, 37.289179627062879 ], [ 126.742464665148177, 37.287658751098675 ], [ 126.745383589564909, 37.287985192160271 ], [ 126.745887627129022, 37.283615590708045 ] ] ] ] } }
]
}
