{"type":"FeatureCollection","features":[{"type":"Feature","properties":{"n":"삼성전자 화성캠퍼스","note":"KoDATA 명단에 없음(본점 수원) — kodata/report/samsung-hwaseong.qmd 추정치","area":1235799,"lis_2026":2000,"lis_2024":0,"lis_max":2700,"res":261,"prop":69,"emp":33000,"land_jiga_jo":1.41,"gfa":1573741,"c":[127.069318,37.217452],"src":"법인지방소득세 실측(한국일보 2026-06-11 등) · 주민세 종업원분 3.3만 × 1.58억 × 0.5% · 재산세 토지 33 + 건물 36(중간 시나리오)"},"geometry":{"type":"Polygon","coordinates":[[[127.06434476344,37.2121489627001],[127.064396569724,37.2121293825789],[127.06444905275,37.2121107932225],[127.064501987204,37.21209319475],[127.064555373089,37.2120765871605],[127.064609322988,37.2120608802894],[127.064663724396,37.2120462544043],[127.064718464656,37.2120327095648],[127.064773543622,37.212020065562],[127.064829074103,37.2120085025435],[127.064884943443,37.2119980205691],[127.064941038912,37.2119885295944],[127.064997360513,37.2119800296191],[127.065053908397,37.2119727008513],[127.065110795075,37.2119663630217],[127.065164641054,37.2119612882588],[127.065218713174,37.2119572044969],[127.06527289878,37.2119541117964],[127.06532708514,37.2119519201135],[127.065381272332,37.2119507195526],[127.06644474568,37.2119362652959],[127.066501298259,37.2119346124045],[127.06655785045,37.2119325089649],[127.066614402095,37.2119297747686],[127.066670840692,37.2119265900861],[127.066727278818,37.2119228647513],[127.066783716473,37.2119185987641],[127.066839928341,37.2119137922489],[127.066896252393,37.2119084450193],[127.066952350733,37.2119026473663],[127.067008448597,37.2118963090612],[127.067064433327,37.2118894301665],[127.067120304921,37.2118820106822],[127.067176063379,37.2118740506087],[127.06723159612,37.2118656401126],[127.067287128379,37.2118566889651],[127.067343334219,37.2118450342886],[127.06739931418,37.2118327489812],[127.067455068259,37.2118198330429],[127.067510483641,37.2118061063286],[127.067565673139,37.2117917489843],[127.067620636752,37.2117767610103],[127.067675261743,37.2117610523656],[127.067729548109,37.2117446230507],[127.06778349593,37.2117275631702],[127.067837105124,37.2117097826206],[127.067890375849,37.2116914616105],[127.067943307866,37.2116723298278],[127.067995901412,37.2116526575856],[127.06804804367,37.2116322647393],[127.068099734718,37.2116112413935],[127.068151087291,37.2115896775898],[127.068201988574,37.2115673931836],[127.068252551302,37.2115444782161],[127.068302550159,37.2115209328149],[127.068352097802,37.211496756917],[127.06840119423,37.2114719505232],[127.068449726866,37.2114466038017],[127.068497920942,37.2114206265218],[127.068545438567,37.2113941089791],[127.068592730289,37.2113669608152],[127.068639120166,37.2113391824133],[127.068685058904,37.2113108636232],[127.068836272681,37.2112165286848],[127.068895947314,37.2111791915752],[127.069049555414,37.2111174727556],[127.069151677542,37.2110536206441],[127.069725787463,37.210694496105],[127.069704926986,37.2106731533965],[127.069798153226,37.210614892311],[127.069818901058,37.2106362350682],[127.069872190803,37.2106029017763],[127.069884786077,37.2106158334848],[127.070537590183,37.2102075526905],[127.070637377175,37.2103034736098],[127.070726225328,37.2103867501911],[127.070958601748,37.2105988098198],[127.071057446949,37.210686234095],[127.071096515553,37.2107472207731],[127.071171491039,37.2108119616974],[127.071250975369,37.2108794030481],[127.07133079731,37.2109463035198],[127.071411294912,37.2110127530166],[127.071492355519,37.211078751604],[127.071573979048,37.2111442091763],[127.071656278322,37.2112093058742],[127.071739027778,37.2112737715173],[127.071822565635,37.2113378762167],[127.071906441101,37.21140144003],[127.071991104885,37.2114645527927],[127.072075993535,37.2115270346302],[127.072087380253,37.2115360382752],[127.072125201754,37.2115025870441],[127.072149290371,37.2114812179655],[127.072186999245,37.2114478568858],[127.072186866839,37.2114266824569],[127.0721976896,37.2114349655936],[127.072281789791,37.2114974477544],[127.072389559835,37.2115725302943],[127.072477486282,37.2116303246022],[127.07255571575,37.2116789340233],[127.07265930507,37.2117402328671],[127.072700898107,37.2117642657214],[127.072644911702,37.2117687144652],[127.072630729684,37.2117823287277],[127.072585707339,37.211825515702],[127.072564096602,37.2118462526518],[127.072577848804,37.2118548043088],[127.072665663995,37.2119135896879],[127.072753140249,37.2119712038494],[127.072841066673,37.2120281869447],[127.072891905987,37.2120608641732],[127.072892131438,37.2120610082042],[127.073068996319,37.2121723965269],[127.073107885939,37.2121964308695],[127.073197726368,37.2122516104552],[127.073288129619,37.2123061589013],[127.073379095777,37.2123601663106],[127.07347039961,37.212413722923],[127.073562266349,37.2124667384965],[127.073654583335,37.2125192130983],[127.073747237907,37.2125711467962],[127.073840455469,37.212622629556],[127.073934123273,37.212673571341],[127.074028353979,37.2127239720813],[127.074214333904,37.2128212607922],[127.074333021612,37.212881737953],[127.074402002194,37.2129164757722],[127.074496568104,37.2129633618651],[127.074591246181,37.213009617083],[127.07487832011,37.2131454970612],[127.074974799185,37.2131896784574],[127.075146453868,37.2132665299232],[127.075168770029,37.2132764185066],[127.075266374543,37.213319067192],[127.075364316529,37.2133610848564],[127.075462483327,37.2134024715693],[127.07560599149,37.2134625715327],[127.075952105783,37.2136359854248],[127.076050163789,37.21368061547],[127.076146757775,37.2137256968774],[127.076242902035,37.2137715894275],[127.076338371164,37.2138182031597],[127.07643316525,37.2138656281797],[127.076621066286,37.2139629118755],[127.07671417315,37.2140126804496],[127.076806492319,37.214063260389],[127.077079399274,37.2142195075689],[127.077400793115,37.2144172250744],[127.077433823854,37.2144382342376],[127.078014237418,37.2148126043191],[127.078209889436,37.2149388039294],[127.078133116669,37.2148892962876],[127.078174795315,37.2149945110633],[127.077893581932,37.2158793360141],[127.077857551094,37.2161241723984],[127.077642881183,37.2168634353923],[127.077614016345,37.2169530175184],[127.07758289778,37.2170422406669],[127.077549299968,37.2171309247721],[127.077513335388,37.2172188895516],[127.077476694551,37.2173066745443],[127.077439715633,37.217394459741],[127.077401271437,37.2174817052386],[127.077361136806,37.2175685913881],[127.077319424221,37.2176549379076],[127.077276133768,37.2177408348995],[127.077231265352,37.217826192258],[127.077184818969,37.2179110099813],[127.077027247244,37.2181855678933],[127.077057565066,37.2181960907499],[127.077115458431,37.2181787538081],[127.076919835477,37.2185976827399],[127.076890707989,37.2185380523146],[127.076879192638,37.2185146325561],[127.076848310302,37.2185030287634],[127.076802315715,37.2185898283319],[127.076757673478,37.2186770775431],[127.076714270837,37.2187646863658],[127.076672333222,37.2188527447627],[127.076631522544,37.2189411628454],[127.07602087228,37.220290624103],[127.074971076268,37.2198074745833],[127.074841113354,37.2197501587646],[127.074709463304,37.2196956370743],[127.074638004563,37.2196680192357],[127.074566546134,37.2196406716661],[127.074494412786,37.2196144057191],[127.072356259119,37.2188506293856],[127.07187681188,37.2186793568274],[127.071852017036,37.2186707215535],[127.071827109698,37.2186622665495],[127.071801752449,37.2186546227449],[127.071776170456,37.2186476097974],[127.071750363718,37.2186412277069],[127.071724331983,37.2186352061609],[127.071698300419,37.2186293648174],[127.071672156527,37.2186238839514],[127.071645787637,37.2186187636296],[127.071619306833,37.2186144543057],[127.071592601116,37.2186105956299],[127.071566008401,37.218607097298],[127.070113355299,37.218445309505],[127.069617683422,37.2183901814779],[127.069238400935,37.2199397672267],[127.06917920751,37.2199305203302],[127.068953003805,37.2198951933572],[127.068563601194,37.2198750148573],[127.068505235893,37.2198719933526],[127.068227865505,37.2198831516296],[127.068160873823,37.2198847571574],[127.068125573309,37.2198833263388],[127.068060499615,37.2198750823463],[127.068034503946,37.2198717901265],[127.068011358587,37.2198682440091],[127.067956669657,37.2198561737122],[127.067922585152,37.2198409381933],[127.067904605007,37.2198301898362],[127.067887851436,37.2198177017788],[127.067858983227,37.2197892450374],[127.067842967418,37.2197700528105],[127.067770329402,37.2196408931053],[127.067762496328,37.2196250481642],[127.067757716679,37.2195706639629],[127.067780704762,37.2194589399566],[127.067790305878,37.2194480680218],[127.067819410106,37.2194374194404],[127.067852670653,37.2193997372733],[127.067881072501,37.2192947229727],[127.067888507193,37.2192673902115],[127.067183714984,37.2191551798967],[127.067050251564,37.2191328449124],[127.066908407939,37.2191261294582],[127.066777921738,37.2191199482015],[127.066657986308,37.2193161259596],[127.066567267891,37.2194629194723],[127.06648359186,37.21961080832],[127.066261338515,37.2200160203254],[127.066202044366,37.2201259527683],[127.066176463813,37.2201733975658],[127.06612429301,37.2202734776934],[127.066001035705,37.220515708794],[127.065903759077,37.2207177662156],[127.065788468308,37.220962515662],[127.065777943097,37.2209870026699],[127.066409130675,37.2213486428941],[127.06683732295,37.2215400139542],[127.06685771509,37.2215514188995],[127.066854145815,37.2216064654855],[127.067178712357,37.221793396229],[127.067237534011,37.2218272697874],[127.067311528978,37.2218698839992],[127.067569374451,37.2220195205701],[127.067571020308,37.2220204837663],[127.067640472933,37.2220607846283],[127.067680230515,37.2220298206663],[127.067748769402,37.2219786032114],[127.067772953023,37.2219962230627],[127.067902058585,37.221912642258],[127.068150935852,37.2219717279383],[127.068240212439,37.221991707823],[127.068713652854,37.222083544588],[127.06861351145,37.2224926560687],[127.068398712383,37.2224425895698],[127.068421637268,37.2227568597915],[127.068567589961,37.2226754132314],[127.068479807595,37.2230466017501],[127.070793651815,37.2243724141887],[127.070799237882,37.2244434129447],[127.07077647402,37.2245629943862],[127.070771802186,37.224629223623],[127.070861204062,37.2246834139702],[127.071081971084,37.2248432192513],[127.071368885267,37.2250083913651],[127.072206749429,37.2254906718648],[127.072643937855,37.2257422419741],[127.072673306321,37.2257591368662],[127.07269964213,37.2257742945651],[127.072745414179,37.225800667537],[127.072791073497,37.2258269504549],[127.072701890199,37.2259242894558],[127.072607756691,37.2259939964427],[127.072453542342,37.2261593397683],[127.072368328211,37.226248593801],[127.072278365633,37.2263451220062],[127.072266197951,37.2263348033504],[127.072158850807,37.2264214213906],[127.071950549157,37.2265873459351],[127.07191941671,37.2266124494159],[127.071799822817,37.2267500913227],[127.07177828842,37.2267729094368],[127.071723594017,37.2268095781815],[127.071639536638,37.226884225128],[127.071624319456,37.2268905234002],[127.071606150026,37.2268967783656],[127.071594727538,37.2269002631416],[127.071577706075,37.2269050487272],[127.071564130263,37.2269073003486],[127.071548695354,37.2269096792135],[127.071540998948,37.2269092602754],[127.071530641796,37.2269072120265],[127.071523132673,37.2269021706387],[127.071512982434,37.2268923552966],[127.071471502545,37.2268774225329],[127.071432049489,37.2268609567891],[127.070608042955,37.2263878534566],[127.069749098235,37.2258944910684],[127.069054870495,37.2254954576567],[127.068539897687,37.2251995781125],[127.068377860672,37.2250636125409],[127.067478700184,37.2245473698238],[127.06724816236,37.2244146845707],[127.066416881191,37.223937501216],[127.06602979612,37.2237515576319],[127.066013805955,37.2237629194581],[127.065994882325,37.2237696875701],[127.065971787342,37.2237736647221],[127.065950717133,37.2237736761876],[127.065850837329,37.2237150727151],[127.065847350685,37.2237224631455],[127.065538772097,37.2236340580259],[127.06543916385,37.2236296066256],[127.065405023263,37.2236294448396],[127.065314548209,37.2236327373602],[127.065306997713,37.2236312096575],[127.065260447134,37.2236123128597],[127.065162987172,37.2236166902731],[127.065073178945,37.2236089895501],[127.064935145604,37.2236008640722],[127.064727145696,37.2235980018358],[127.064524902555,37.2236075705382],[127.064278591986,37.2236031961204],[127.064223276931,37.2236131368732],[127.06412334663,37.2236278767114],[127.064002013741,37.2236494756715],[127.063969343714,37.223656340816],[127.063936900145,37.2236645573939],[127.063430552841,37.2238186308946],[127.063397769867,37.2238253157322],[127.063363856458,37.223827495946],[127.063309544387,37.2238241904448],[127.063274498348,37.2238191628957],[127.063219682647,37.223806198456],[127.063177551809,37.2237764950551],[127.062918319934,37.2235951330409],[127.062834274496,37.2235516833328],[127.062752651537,37.22349414904],[127.062756479702,37.2234907231044],[127.062716003198,37.2234581263402],[127.062658507947,37.22341941127],[127.062543744351,37.2233436929062],[127.062451756825,37.2232874252018],[127.062280857793,37.2231816406772],[127.062184123341,37.2231066335429],[127.062053799821,37.2230160554906],[127.061944340795,37.2229499749694],[127.061926073066,37.222931693153],[127.061875343703,37.2228988310153],[127.06183234278,37.2228646944517],[127.061715464432,37.2227629452744],[127.061680889538,37.2226978085541],[127.061606234353,37.2225585544933],[127.061405196597,37.2223511014729],[127.061190832404,37.2221314096678],[127.061097693128,37.2220688251801],[127.061073444687,37.2220384722844],[127.061021567058,37.2219769572389],[127.060944993877,37.2218894144701],[127.060782505024,37.2217255063683],[127.060640441108,37.2216008732485],[127.060611239314,37.221575478456],[127.060561347202,37.2215018251855],[127.06054958195,37.2214843688681],[127.060220490227,37.2212655253202],[127.060213343068,37.2212606181867],[127.060467152802,37.2210663176896],[127.06086655721,37.2207607552487],[127.060927024913,37.2207144113973],[127.061122847585,37.2205731197955],[127.061153133583,37.2205448118444],[127.061297042442,37.2204388669098],[127.061379806727,37.2203779146949],[127.061432054331,37.2203384226535],[127.061518305449,37.2202702602441],[127.061600183694,37.2200870369767],[127.061611056441,37.220016209589],[127.061623991035,37.2199880004223],[127.061672917451,37.2198812922512],[127.062131806869,37.2188805415521],[127.062155088462,37.2188298009809],[127.062917177064,37.2171677969219],[127.064032553308,37.2125153116913],[127.064052200738,37.2124332163231],[127.064072185132,37.2123499494168],[127.064113725264,37.2121764767306],[127.064121921131,37.2121424129803],[127.06417003227,37.2121500464044],[127.064293521238,37.2121695336466],[127.06434476344,37.2121489627001]],[[127.066273493629,37.2193811937936],[127.066306951283,37.2193754989326],[127.066337813088,37.219364579441],[127.06636664477,37.2193512282404],[127.066393671512,37.2193352650005],[127.066409885174,37.2193229118464],[127.066424182311,37.2193092081779],[127.066441400632,37.2192859518641],[127.066468853747,37.2192416956632],[127.066597677887,37.2190310514897],[127.066692524554,37.218877191504],[127.066726952291,37.2188207673378],[127.066761604769,37.218763712308],[127.066791636823,37.2187054884598],[127.066819302352,37.2186467252832],[127.066850452206,37.21857831903],[127.066875638111,37.2185185660608],[127.066906104004,37.2184410596465],[127.066943073383,37.2183275079565],[127.066963179788,37.2182569452696],[127.067010347426,37.2180806754035],[127.067025841786,37.2180186751515],[127.067030107755,37.2180009222663],[127.067031669576,37.2179829906684],[127.067043860063,37.2177485328141],[127.06704316996,37.2177322243366],[127.067044941359,37.2176960915742],[127.067045240463,37.2176511294149],[127.067043398683,37.2176058981271],[127.067040768246,37.2175606672753],[127.067037123978,37.2175156171923],[127.067021008668,37.2173805599113],[127.067016575607,37.2173353300542],[127.067016198501,37.2172900979535],[127.067016722951,37.2172451356666],[127.067021980271,37.2172012520122],[127.067033996009,37.2171556526389],[127.067085411698,37.2169419871144],[127.067395488714,37.2156734179874],[127.067372725751,37.2155380039924],[127.067354650471,37.2154813384813],[127.067321367658,37.2154268439186],[127.067307494756,37.2154091010921],[127.067148854383,37.2152657431698],[127.066996320634,37.2151481514668],[127.066730717499,37.2149493478532],[127.066601550191,37.2148831922877],[127.066189828672,37.2148181823496],[127.066054504285,37.2147973519808],[127.065921919621,37.2148185986479],[127.06579441513,37.2148521866906],[127.065643959954,37.2149240813259],[127.065538660807,37.2149709924953],[127.065415578961,37.2150392678702],[127.065302642469,37.2151146558878],[127.065143678392,37.2152513394117],[127.065054295379,37.215335815062],[127.064920466134,37.2154868113678],[127.064915763487,37.2155216842222],[127.064913749433,37.2155382644786],[127.064900581923,37.2155550309127],[127.064871765214,37.2155848708306],[127.064850928709,37.2155921804171],[127.06482896384,37.2155974182058],[127.064741529192,37.2155874633427],[127.063565290756,37.2154024706819],[127.063558528204,37.2153990502636],[127.063506801821,37.2156569556558],[127.063206266369,37.2168241424261],[127.063375117603,37.2169216372171],[127.064247217238,37.2174194547739],[127.064304027744,37.2174521324954],[127.064346460121,37.2174008407027],[127.064758779268,37.2176269630032],[127.064786454329,37.2177130878347],[127.064570895848,37.2179495460939],[127.064538934539,37.2179927230136],[127.064535126597,37.2180200266099],[127.064537620774,37.2180386768505],[127.064545413798,37.2180615591681],[127.064590174479,37.218100099933],[127.064665025433,37.2181485361018],[127.064886529784,37.2182853761592],[127.064665440889,37.2185117458581],[127.066114375904,37.2193461400606],[127.066142893446,37.2193607213786],[127.066173436414,37.2193722380423],[127.066205778546,37.2193796089236],[127.066239919606,37.2193825637086],[127.066273493629,37.2193811937936]]]}}]}
